{"type":"FeatureCollection","features":[{"type":"Feature","id":318,"geometry":{"type":"Point","coordinates":[-159.73894274481756,21.979834386790156]},"properties":{"objectid":318,"island":"Kauai","route":"50","mp":27.8748,"direction":"+MP","location":"Right","lat":21.979823720000002,"lon":-159.7389507,"surveyed":"16-FEB-2023","legend":"28"}},{"type":"Feature","id":319,"geometry":{"type":"Point","coordinates":[-159.35407634804105,21.957802284174505]},"properties":{"objectid":319,"island":"Kauai","route":"58","mp":0.009300000000000001,"direction":"-MP","location":"Right","lat":21.957796559999998,"lon":-159.35408939000001,"surveyed":"23-FEB-2023","legend":"0"}},{"type":"Feature","id":335,"geometry":{"type":"Point","coordinates":[-159.36587173511958,21.991861986072898]},"properties":{"objectid":335,"island":"Kauai","route":"583","mp":0.027480000000000001,"direction":"+MP","location":"Right","lat":21.991855210000001,"lon":-159.36588467999999,"surveyed":"22-FEB-2023","legend":"0"}},{"type":"Feature","id":336,"geometry":{"type":"Point","coordinates":[-159.5008514785672,22.201652162480311]},"properties":{"objectid":336,"island":"Kauai","route":"560","mp":2.99695,"direction":"+MP","location":"Right","lat":22.201640349999998,"lon":-159.50086468000001,"surveyed":"19-FEB-2023","legend":"3"}},{"type":"Feature","id":340,"geometry":{"type":"Point","coordinates":[-159.31940593843026,22.070751852837134]},"properties":{"objectid":340,"island":"Kauai","route":"56","mp":8.0311400000000006,"direction":"+MP","location":"Right","lat":22.070743109999999,"lon":-159.31942071,"surveyed":"13-FEB-2023","legend":"8"}},{"type":"Feature","id":341,"geometry":{"type":"Point","coordinates":[-159.35393883036269,21.994824918970181]},"properties":{"objectid":341,"island":"Kauai","route":"56","mp":1.9759700000000002,"direction":"+MP","location":"Right","lat":21.994818390000002,"lon":-159.35395171000002,"surveyed":"13-FEB-2023","legend":"2"}},{"type":"Feature","id":353,"geometry":{"type":"Point","coordinates":[-159.34442691834758,22.013721644405894]},"properties":{"objectid":353,"island":"Kauai","route":"56","mp":3.51762,"direction":"+MP","location":"Right","lat":22.01371413,"lon":-159.34444046000002,"surveyed":"13-FEB-2023","legend":"3; .50"}},{"type":"Feature","id":354,"geometry":{"type":"Point","coordinates":[-159.34127586809973,22.034443069753614]},"properties":{"objectid":354,"island":"Kauai","route":"56","mp":4.9882999999999997,"direction":"+MP","location":"Right","lat":22.034434930000003,"lon":-159.34128960999999,"surveyed":"13-FEB-2023","legend":"5; .0"}},{"type":"Feature","id":355,"geometry":{"type":"Point","coordinates":[-159.33935158612522,22.040754189143005]},"properties":{"objectid":355,"island":"Kauai","route":"56","mp":5.4458600000000006,"direction":"+MP","location":"Right","lat":22.040747210000003,"lon":-159.33936574000001,"surveyed":"13-FEB-2023","legend":"5; .5"}},{"type":"Feature","id":366,"geometry":{"type":"Point","coordinates":[-159.31235871320484,22.082432355854856]},"properties":{"objectid":366,"island":"Kauai","route":"56","mp":8.9927599999999988,"direction":"+MP","location":"Right","lat":22.082424570000001,"lon":-159.31237432,"surveyed":"13-FEB-2023","legend":"9"}},{"type":"Feature","id":377,"geometry":{"type":"Point","coordinates":[-159.30087721392172,22.123003434632633]},"properties":{"objectid":377,"island":"Kauai","route":"56","mp":11.97959,"direction":"+MP","location":"Right","lat":22.122994260000002,"lon":-159.300894,"surveyed":"13-FEB-2023","legend":"12"}},{"type":"Feature","id":378,"geometry":{"type":"Point","coordinates":[-159.30457348002022,22.137149250018492]},"properties":{"objectid":378,"island":"Kauai","route":"56","mp":12.98334,"direction":"+MP","location":"Right","lat":22.13713942,"lon":-159.30458953999999,"surveyed":"13-FEB-2023","legend":"13"}},{"type":"Feature","id":379,"geometry":{"type":"Point","coordinates":[-159.31559778717843,22.146327176531496]},"properties":{"objectid":379,"island":"Kauai","route":"56","mp":13.97283,"direction":"+MP","location":"Right","lat":22.14631739,"lon":-159.31561364999999,"surveyed":"13-FEB-2023","legend":"14"}},{"type":"Feature","id":380,"geometry":{"type":"Point","coordinates":[-159.36093422648605,22.188144954334302]},"properties":{"objectid":380,"island":"Kauai","route":"56","mp":18.964729999999999,"direction":"+MP","location":"Right","lat":22.188133229999998,"lon":-159.36094899,"surveyed":"13-FEB-2023","legend":"19"}},{"type":"Feature","id":381,"geometry":{"type":"Point","coordinates":[-159.36321042270589,22.201592557303471]},"properties":{"objectid":381,"island":"Kauai","route":"56","mp":19.964169999999999,"direction":"+MP","location":"Right","lat":22.201580199999999,"lon":-159.36322633,"surveyed":"13-FEB-2023","legend":"20"}},{"type":"Feature","id":389,"geometry":{"type":"Point","coordinates":[-159.37067124340115,21.976271146160126]},"properties":{"objectid":389,"island":"Kauai","route":"50","mp":0,"direction":"+MP","location":"Right","lat":21.97626464,"lon":-159.37068309,"surveyed":"16-FEB-2023","legend":"0"}},{"type":"Feature","id":390,"geometry":{"type":"Point","coordinates":[-159.39397920127851,22.202956348858063]},"properties":{"objectid":390,"island":"Kauai","route":"56","mp":21.980180000000001,"direction":"+MP","location":"Right","lat":22.202944540000001,"lon":-159.39399349999999,"surveyed":"13-FEB-2023","legend":"22; .0"}},{"type":"Feature","id":391,"geometry":{"type":"Point","coordinates":[-159.63576426930285,21.929179166061672]},"properties":{"objectid":391,"island":"Kauai","route":"50","mp":19.952250000000003,"direction":"+MP","location":"Right","lat":21.929170699999997,"lon":-159.63577306000002,"surveyed":"16-FEB-2023","legend":"20"}},{"type":"Feature","id":392,"geometry":{"type":"Point","coordinates":[-159.65734734698322,21.950010959140364]},"properties":{"objectid":392,"island":"Kauai","route":"50","mp":22.006439999999998,"direction":"+MP","location":"Right","lat":21.950001959999998,"lon":-159.65735562,"surveyed":"16-FEB-2023","legend":"22"}},{"type":"Feature","id":393,"geometry":{"type":"Point","coordinates":[-159.67014777724395,21.956321554120876]},"properties":{"objectid":393,"island":"Kauai","route":"50","mp":22.935639999999999,"direction":"+MP","location":"Right","lat":21.95631186,"lon":-159.67015594,"surveyed":"16-FEB-2023","legend":"23"}},{"type":"Feature","id":394,"geometry":{"type":"Point","coordinates":[-159.68333791064339,21.961141174319373]},"properties":{"objectid":394,"island":"Kauai","route":"50","mp":23.872720000000001,"direction":"+MP","location":"Right","lat":21.961131150000003,"lon":-159.68334534000002,"surveyed":"16-FEB-2023","legend":"24"}},{"type":"Feature","id":395,"geometry":{"type":"Point","coordinates":[-159.6998657950985,21.961656629848381]},"properties":{"objectid":395,"island":"Kauai","route":"50","mp":24.93422,"direction":"+MP","location":"Right","lat":21.961646000000002,"lon":-159.69987329,"surveyed":"16-FEB-2023","legend":"25"}},{"type":"Feature","id":400,"geometry":{"type":"Point","coordinates":[-159.74987631101948,21.991445963303711]},"properties":{"objectid":400,"island":"Kauai","route":"50","mp":28.93779,"direction":"+MP","location":"Right","lat":21.991435409999998,"lon":-159.74988399,"surveyed":"16-FEB-2023","legend":"29"}},{"type":"Feature","id":401,"geometry":{"type":"Point","coordinates":[-159.76007714223638,22.002264160522479]},"properties":{"objectid":401,"island":"Kauai","route":"50","mp":29.928380000000001,"direction":"+MP","location":"Right","lat":22.002253479999997,"lon":-159.76008474,"surveyed":"16-FEB-2023","legend":"30"}},{"type":"Feature","id":402,"geometry":{"type":"Point","coordinates":[-159.7792785635996,22.025491215517906]},"properties":{"objectid":402,"island":"Kauai","route":"50","mp":31.98237,"direction":"+MP","location":"Right","lat":22.025480510000001,"lon":-159.77928653000001,"surveyed":"16-FEB-2023","legend":"32"}},{"type":"Feature","id":410,"geometry":{"type":"Point","coordinates":[-159.38448260509739,21.970587745303391]},"properties":{"objectid":410,"island":"Kauai","route":"50","mp":0.97449000000000008,"direction":"-MP","location":"Right","lat":21.970581360000001,"lon":-159.38449423,"surveyed":"13-FEB-2023","legend":"1"}},{"type":"Feature","id":411,"geometry":{"type":"Point","coordinates":[-159.35680664844617,21.968553488972464]},"properties":{"objectid":411,"island":"Kauai","route":"51","mp":0.98377000000000003,"direction":"+MP","location":"Right","lat":21.96854699,"lon":-159.35681872999999,"surveyed":"14-FEB-2023","legend":"1"}},{"type":"Feature","id":412,"geometry":{"type":"Point","coordinates":[-159.35109841865966,21.981738398777416]},"properties":{"objectid":412,"island":"Kauai","route":"51","mp":1.9739800000000001,"direction":"+MP","location":"Right","lat":21.981731740000001,"lon":-159.35111211,"surveyed":"14-FEB-2023","legend":"2"}},{"type":"Feature","id":413,"geometry":{"type":"Point","coordinates":[-159.34701448712443,21.987794631557239]},"properties":{"objectid":413,"island":"Kauai","route":"51","mp":2.4742700000000002,"direction":"+MP","location":"Right","lat":21.987788370000001,"lon":-159.34702765,"surveyed":"14-FEB-2023","legend":"2 50"}},{"type":"Feature","id":414,"geometry":{"type":"Point","coordinates":[-159.34395426172705,21.995165892169492]},"properties":{"objectid":414,"island":"Kauai","route":"51","mp":3.0407900000000003,"direction":"+MP","location":"Right","lat":21.995158979999999,"lon":-159.34396749999999,"surveyed":"14-FEB-2023","legend":"3 00"}},{"type":"Feature","id":415,"geometry":{"type":"Point","coordinates":[-159.55487040273698,21.902868808682399]},"properties":{"objectid":415,"island":"Kauai","route":"540","mp":1.98099,"direction":"+MP","location":"Right","lat":21.902861739999999,"lon":-159.55487825,"surveyed":"14-FEB-2023","legend":"2"}},{"type":"Feature","id":416,"geometry":{"type":"Point","coordinates":[-159.581365353103,21.905934832919417]},"properties":{"objectid":416,"island":"Kauai","route":"540","mp":3.8736900000000003,"direction":"+MP","location":"Right","lat":21.90592689,"lon":-159.58137289000001,"surveyed":"14-FEB-2023","legend":"3 95"}},{"type":"Feature","id":417,"geometry":{"type":"Point","coordinates":[-159.58460146497242,21.904733754313412]},"properties":{"objectid":417,"island":"Kauai","route":"541","mp":0.013380000000000001,"direction":"+MP","location":"Right","lat":21.904726319999998,"lon":-159.58460818999998,"surveyed":"14-FEB-2023","legend":"0"}},{"type":"Feature","id":418,"geometry":{"type":"Point","coordinates":[-159.58771749853295,21.900404049382534]},"properties":{"objectid":418,"island":"Kauai","route":"541","mp":0.37262000000000006,"direction":"+MP","location":"Right","lat":21.900396280000002,"lon":-159.58772579000001,"surveyed":"14-FEB-2023","legend":"0 37"}},{"type":"Feature","id":419,"geometry":{"type":"Point","coordinates":[-159.67182858528375,21.957586754648663]},"properties":{"objectid":419,"island":"Kauai","route":"550","mp":0.01482,"direction":"+MP","location":"Right","lat":21.957578030000001,"lon":-159.67183657999999,"surveyed":"14-FEB-2023","legend":"0"}},{"type":"Feature","id":421,"geometry":{"type":"Point","coordinates":[-159.36750650726677,21.980840415152194]},"properties":{"objectid":421,"island":"Kauai","route":"570","mp":0.0069100000000000003,"direction":"+MP","location":"Right","lat":21.980834519999998,"lon":-159.36751861000002,"surveyed":"15-FEB-2023","legend":"0 00"}},{"type":"Feature","id":422,"geometry":{"type":"Point","coordinates":[-159.35967545624169,21.980643805235864]},"properties":{"objectid":422,"island":"Kauai","route":"570","mp":0.51502999999999999,"direction":"+MP","location":"Right","lat":21.98063874,"lon":-159.35968728,"surveyed":"15-FEB-2023","legend":"0 50"}},{"type":"Feature","id":423,"geometry":{"type":"Point","coordinates":[-159.3521947082892,21.981245103450437]},"properties":{"objectid":423,"island":"Kauai","route":"570","mp":1.0016500000000002,"direction":"+MP","location":"Right","lat":21.98123867,"lon":-159.35220751,"surveyed":"15-FEB-2023","legend":"1"}},{"type":"Feature","id":424,"geometry":{"type":"Point","coordinates":[-159.35417917034255,21.957976952135255]},"properties":{"objectid":424,"island":"Kauai","route":"58","mp":0.0071600000000000006,"direction":"+MP","location":"Right","lat":21.957970199999998,"lon":-159.35419127,"surveyed":"20-FEB-2023","legend":"0"}},{"type":"Feature","id":425,"geometry":{"type":"Point","coordinates":[-159.67726015865415,22.013447642056494]},"properties":{"objectid":425,"island":"Kauai","route":"550","mp":4.9900900000000004,"direction":"+MP","location":"Right","lat":22.01343803,"lon":-159.67726819000001,"surveyed":"14-FEB-2023","legend":"5"}},{"type":"Feature","id":426,"geometry":{"type":"Point","coordinates":[-159.67100677663245,22.031987516713013]},"properties":{"objectid":426,"island":"Kauai","route":"550","mp":6.4929799999999993,"direction":"+MP","location":"Right","lat":22.03197814,"lon":-159.67101511999999,"surveyed":"14-FEB-2023","legend":"6 50"}},{"type":"Feature","id":427,"geometry":{"type":"Point","coordinates":[-159.65802347883181,22.049134795424077]},"properties":{"objectid":427,"island":"Kauai","route":"550","mp":8.4804300000000001,"direction":"+MP","location":"Right","lat":22.04912405,"lon":-159.65803154,"surveyed":"14-FEB-2023","legend":"8 50"}},{"type":"Feature","id":430,"geometry":{"type":"Point","coordinates":[-159.36677071613909,21.962531849040907]},"properties":{"objectid":430,"island":"Kauai","route":"58","mp":0.98520000000000008,"direction":"+MP","location":"Right","lat":21.962526029999999,"lon":-159.36678333,"surveyed":"20-FEB-2023","legend":"1"}},{"type":"Feature","id":431,"geometry":{"type":"Point","coordinates":[-159.66216900300898,22.054271157399135]},"properties":{"objectid":431,"island":"Kauai","route":"550","mp":8.9612499999999997,"direction":"+MP","location":"Right","lat":22.054260670000001,"lon":-159.66217747000002,"surveyed":"14-FEB-2023","legend":"9"}},{"type":"Feature","id":432,"geometry":{"type":"Point","coordinates":[-159.66622888947867,22.077904003228731]},"properties":{"objectid":432,"island":"Kauai","route":"550","mp":10.95978,"direction":"+MP","location":"Right","lat":22.077892869999999,"lon":-159.66623754,"surveyed":"14-FEB-2023","legend":"11"}},{"type":"Feature","id":433,"geometry":{"type":"Point","coordinates":[-159.67662154630909,22.103056212765626]},"properties":{"objectid":433,"island":"Kauai","route":"550","mp":12.95595,"direction":"+MP","location":"Right","lat":22.103045810000001,"lon":-159.67663042000001,"surveyed":"14-FEB-2023","legend":"13"}},{"type":"Feature","id":434,"geometry":{"type":"Point","coordinates":[-159.67049462036996,22.11420861740331]},"properties":{"objectid":434,"island":"Kauai","route":"550","mp":13.950890000000001,"direction":"+MP","location":"Right","lat":22.114197960000002,"lon":-159.67050413000001,"surveyed":"14-FEB-2023","legend":"14"}},{"type":"Feature","id":442,"geometry":{"type":"Point","coordinates":[-159.47996976933302,22.20942815752446]},"properties":{"objectid":442,"island":"Kauai","route":"560","mp":1.5026400000000002,"direction":"+MP","location":"Right","lat":22.209415959999998,"lon":-159.47998278,"surveyed":"19-FEB-2023","legend":"1"}},{"type":"Feature","id":443,"geometry":{"type":"Point","coordinates":[-159.49348470846601,22.203772030359112]},"properties":{"objectid":443,"island":"Kauai","route":"560","mp":2.5032000000000001,"direction":"+MP","location":"Right","lat":22.20375997,"lon":-159.49349762,"surveyed":"19-FEB-2023","legend":"2; .5"}},{"type":"Feature","id":481,"geometry":{"type":"Point","coordinates":[-159.34243110809706,22.180016991564958]},"properties":{"objectid":481,"island":"Kauai","route":"56","mp":17.405889999999999,"direction":"+MP","location":"Right","lat":22.180005099999999,"lon":-159.34244516000001,"surveyed":"13-FEB-2023","legend":"17 .50"}},{"type":"Feature","id":482,"geometry":{"type":"Point","coordinates":[-159.35770036248428,22.182125655995758]},"properties":{"objectid":482,"island":"Kauai","route":"56","mp":18.471719999999998,"direction":"+MP","location":"Right","lat":22.182114149999997,"lon":-159.35771613,"surveyed":"13-FEB-2023","legend":"18 .50"}},{"type":"Feature","id":483,"geometry":{"type":"Point","coordinates":[-159.5354007197615,21.924808410854126]},"properties":{"objectid":483,"island":"Kauai","route":"540","mp":0.0060299999999999998,"direction":"+MP","location":"Right","lat":21.924801940000002,"lon":-159.53540897000002,"surveyed":"14-FEB-2023","legend":"0"}},{"type":"Feature","id":487,"geometry":{"type":"Point","coordinates":[-159.48617791843196,22.205395590509102]},"properties":{"objectid":487,"island":"Kauai","route":"560","mp":2.0071499999999998,"direction":"+MP","location":"Right","lat":22.205383610000002,"lon":-159.48619052999999,"surveyed":"19-FEB-2023","legend":"2"}},{"type":"Feature","id":489,"geometry":{"type":"Point","coordinates":[-159.39798105849891,21.965715558411961]},"properties":{"objectid":489,"island":"Kauai","route":"50","mp":1.9061699999999999,"direction":"-MP","location":"Right","lat":21.965709129999997,"lon":-159.39799227,"surveyed":"13-FEB-2023","legend":"2"}},{"type":"Feature","id":512,"geometry":{"type":"Point","coordinates":[-159.36391638039964,22.048506833643874]},"properties":{"objectid":512,"island":"Kauai","route":"580","mp":2.04413,"direction":"+MP","location":"Right","lat":22.048498349999999,"lon":-159.36392954000002,"surveyed":"22-FEB-2023","legend":"2"}},{"type":"Feature","id":683,"geometry":{"type":"Point","coordinates":[-159.35338779297737,21.964129704222632]},"properties":{"objectid":683,"island":"Kauai","route":"51","mp":0.44649,"direction":"+MP","location":"Right","lat":21.964122969999998,"lon":-159.35339979,"surveyed":"14-FEB-2023","legend":"0; .5"}},{"type":"Feature","id":699,"geometry":{"type":"Point","coordinates":[-159.31753575529024,22.160589482274037]},"properties":{"objectid":699,"island":"Kauai","route":"56","mp":14.989469999999999,"direction":"+MP","location":"Right","lat":22.160579139999999,"lon":-159.31755164,"surveyed":"13-FEB-2023","legend":"15; .0"}},{"type":"Feature","id":700,"geometry":{"type":"Point","coordinates":[-159.33599407611692,22.180980025257789]},"properties":{"objectid":700,"island":"Kauai","route":"56","mp":16.985770000000002,"direction":"+MP","location":"Right","lat":22.180969230000002,"lon":-159.33600940000002,"surveyed":"13-FEB-2023","legend":"17"}},{"type":"Feature","id":701,"geometry":{"type":"Point","coordinates":[-159.41298181514841,22.209269602019404]},"properties":{"objectid":701,"island":"Kauai","route":"56","mp":23.476660000000003,"direction":"+MP","location":"Right","lat":22.209257579999999,"lon":-159.41299714000002,"surveyed":"13-FEB-2023","legend":"23; .5"}},{"type":"Feature","id":703,"geometry":{"type":"Point","coordinates":[-159.42617633092152,22.212444008856227]},"properties":{"objectid":703,"island":"Kauai","route":"56","mp":24.47926,"direction":"+MP","location":"Right","lat":22.21243153,"lon":-159.42618980999998,"surveyed":"13-FEB-2023","legend":"24; .5"}},{"type":"Feature","id":704,"geometry":{"type":"Point","coordinates":[-159.40163462793578,22.201579703091181]},"properties":{"objectid":704,"island":"Kauai","route":"56","mp":22.482839999999999,"direction":"+MP","location":"Right","lat":22.20156811,"lon":-159.40164895000001,"surveyed":"13-FEB-2023","legend":"22; .5"}},{"type":"Feature","id":705,"geometry":{"type":"Point","coordinates":[-159.43218927838595,22.208190652038585]},"properties":{"objectid":705,"island":"Kauai","route":"56","mp":24.978580000000001,"direction":"+MP","location":"Right","lat":22.20817869,"lon":-159.43220385000001,"surveyed":"13-FEB-2023","legend":"25; .0"}},{"type":"Feature","id":706,"geometry":{"type":"Point","coordinates":[-159.43635423192279,22.213362885492703]},"properties":{"objectid":706,"island":"Kauai","route":"56","mp":25.44932,"direction":"+MP","location":"Right","lat":22.213351209999999,"lon":-159.43636888999998,"surveyed":"13-FEB-2023","legend":"25; .5"}},{"type":"Feature","id":707,"geometry":{"type":"Point","coordinates":[-159.45026740062039,22.209772738035117]},"properties":{"objectid":707,"island":"Kauai","route":"56","mp":26.451150000000002,"direction":"+MP","location":"Right","lat":22.20975958,"lon":-159.45028159,"surveyed":"13-FEB-2023","legend":"26; .5"}},{"type":"Feature","id":708,"geometry":{"type":"Point","coordinates":[-159.45713183359632,22.207327433779309]},"properties":{"objectid":708,"island":"Kauai","route":"56","mp":26.94651,"direction":"+MP","location":"Right","lat":22.20731455,"lon":-159.45714583,"surveyed":"13-FEB-2023","legend":"27; .0"}},{"type":"Feature","id":722,"geometry":{"type":"Point","coordinates":[-159.3150832373947,22.153195160922031]},"properties":{"objectid":722,"island":"Kauai","route":"56","mp":14.431709999999999,"direction":"-MP","location":"Right","lat":22.153185469999997,"lon":-159.31509875999998,"surveyed":"22-FEB-2023","legend":"14; .5"}},{"type":"Feature","id":748,"geometry":{"type":"Point","coordinates":[-159.71337528130326,21.96648812222967]},"properties":{"objectid":748,"island":"Kauai","route":"50","mp":25.94839,"direction":"+MP","location":"Right","lat":21.966478089999999,"lon":-159.71338346000002,"surveyed":"16-FEB-2023","legend":"26"}},{"type":"Feature","id":1107,"geometry":{"type":"Point","coordinates":[-159.37504681290713,22.001542961221961]},"properties":{"objectid":1107,"island":"Kauai","route":"583","mp":1.0179199999999999,"direction":"+MP","location":"Right","lat":22.00153585,"lon":-159.37505908,"surveyed":"22-FEB-2023","legend":"1; .0"}},{"type":"Feature","id":1108,"geometry":{"type":"Point","coordinates":[-159.3750459155836,22.001543245148127]},"properties":{"objectid":1108,"island":"Kauai","route":"583","mp":1.0179100000000001,"direction":"+MP","location":"Right","lat":22.001535709999999,"lon":-159.37505880000001,"surveyed":"22-FEB-2023","legend":"1; .0"}},{"type":"Feature","id":1119,"geometry":{"type":"Point","coordinates":[-159.38220947609426,22.012910979205884]},"properties":{"objectid":1119,"island":"Kauai","route":"583","mp":1.9647000000000001,"direction":"+MP","location":"Right","lat":22.012903219999998,"lon":-159.38222242000001,"surveyed":"22-FEB-2023","legend":"2; .0"}},{"type":"Feature","id":1120,"geometry":{"type":"Point","coordinates":[-159.38220880963306,22.012911024124907]},"properties":{"objectid":1120,"island":"Kauai","route":"583","mp":1.9647000000000001,"direction":"+MP","location":"Right","lat":22.012903229999999,"lon":-159.38222237000002,"surveyed":"22-FEB-2023","legend":"2; .0"}},{"type":"Feature","id":1196,"geometry":{"type":"Point","coordinates":[-159.57428319284853,21.914032544232871]},"properties":{"objectid":1196,"island":"Kauai","route":"50","mp":14.96819,"direction":"+MP","location":"Right","lat":21.91402459,"lon":-159.57429073,"surveyed":"16-FEB-2023","legend":"15"}},{"type":"Feature","id":1197,"geometry":{"type":"Point","coordinates":[-159.57428266048058,21.914031852254496]},"properties":{"objectid":1197,"island":"Kauai","route":"50","mp":14.968169999999999,"direction":"+MP","location":"Right","lat":21.914024570000002,"lon":-159.57429035999999,"surveyed":"16-FEB-2023","legend":"15"}},{"type":"Feature","id":1248,"geometry":{"type":"Point","coordinates":[-159.58136528077958,21.905935380655503]},"properties":{"objectid":1248,"island":"Kauai","route":"540","mp":3.8737399999999997,"direction":"+MP","location":"Right","lat":21.9059287,"lon":-159.58137316,"surveyed":"14-FEB-2023","legend":"3 95"}},{"type":"Feature","id":1250,"geometry":{"type":"Point","coordinates":[-159.4799703715571,22.209427221621954]},"properties":{"objectid":1250,"island":"Kauai","route":"560","mp":1.5026600000000001,"direction":"+MP","location":"Right","lat":22.209415489999998,"lon":-159.47998292,"surveyed":"19-FEB-2023","legend":"1"}},{"type":"Feature","id":1253,"geometry":{"type":"Point","coordinates":[-159.37067118158373,21.976269720662426]},"properties":{"objectid":1253,"island":"Kauai","route":"50","mp":0,"direction":"+MP","location":"Right","lat":21.97626198,"lon":-159.37068260999999,"surveyed":"16-FEB-2023","legend":"0"}},{"type":"Feature","id":1254,"geometry":{"type":"Point","coordinates":[-159.48617823081625,22.205395868730147]},"properties":{"objectid":1254,"island":"Kauai","route":"560","mp":2.0071399999999997,"direction":"+MP","location":"Right","lat":22.205383430000001,"lon":-159.48619023000001,"surveyed":"19-FEB-2023","legend":"2"}},{"type":"Feature","id":1259,"geometry":{"type":"Point","coordinates":[-159.5354012980886,21.924808744146212]},"properties":{"objectid":1259,"island":"Kauai","route":"540","mp":0.0060299999999999998,"direction":"+MP","location":"Right","lat":21.924801940000002,"lon":-159.53540897000002,"surveyed":"14-FEB-2023","legend":"0"}},{"type":"Feature","id":1261,"geometry":{"type":"Point","coordinates":[-159.55487086031764,21.902869222720604]},"properties":{"objectid":1261,"island":"Kauai","route":"540","mp":1.98099,"direction":"+MP","location":"Right","lat":21.902861739999999,"lon":-159.55487825,"surveyed":"14-FEB-2023","legend":"2"}},{"type":"Feature","id":1275,"geometry":{"type":"Point","coordinates":[-159.4934844662738,22.20377268516215]},"properties":{"objectid":1275,"island":"Kauai","route":"560","mp":2.5032000000000001,"direction":"+MP","location":"Right","lat":22.203760190000001,"lon":-159.49349766,"surveyed":"19-FEB-2023","legend":"2; .50"}},{"type":"Feature","id":1281,"geometry":{"type":"Point","coordinates":[-159.50085152926832,22.201652507426854]},"properties":{"objectid":1281,"island":"Kauai","route":"560","mp":2.99695,"direction":"+MP","location":"Right","lat":22.201640349999998,"lon":-159.50086468000001,"surveyed":"19-FEB-2023","legend":"3"}},{"type":"Feature","id":1365,"geometry":{"type":"Point","coordinates":[-159.76007663733549,22.002264489893108]},"properties":{"objectid":1365,"island":"Kauai","route":"50","mp":29.928380000000001,"direction":"+MP","location":"Right","lat":22.002253479999997,"lon":-159.76008474,"surveyed":"16-FEB-2023","legend":"30"}},{"type":"Feature","id":1366,"geometry":{"type":"Point","coordinates":[-159.35338784994661,21.964129633631071]},"properties":{"objectid":1366,"island":"Kauai","route":"51","mp":0.44649,"direction":"+MP","location":"Right","lat":21.964122969999998,"lon":-159.35339979,"surveyed":"14-FEB-2023","legend":"0; .5"}},{"type":"Feature","id":1367,"geometry":{"type":"Point","coordinates":[-159.48866928749146,21.927548991906807]},"properties":{"objectid":1367,"island":"Kauai","route":"50","mp":8.96251,"direction":"+MP","location":"Right","lat":21.927541059999999,"lon":-159.48867780999998,"surveyed":"16-FEB-2023","legend":"9"}},{"type":"Feature","id":1368,"geometry":{"type":"Point","coordinates":[-159.48866886770909,21.927548273111917]},"properties":{"objectid":1368,"island":"Kauai","route":"50","mp":8.9624500000000005,"direction":"+MP","location":"Right","lat":21.927541169999998,"lon":-159.48867691999999,"surveyed":"16-FEB-2023","legend":"9"}},{"type":"Feature","id":1369,"geometry":{"type":"Point","coordinates":[-159.36750650357004,21.980840860559063]},"properties":{"objectid":1369,"island":"Kauai","route":"570","mp":0.0069100000000000003,"direction":"+MP","location":"Right","lat":21.980834519999998,"lon":-159.36751861000002,"surveyed":"15-FEB-2023","legend":"0 00"}},{"type":"Feature","id":1372,"geometry":{"type":"Point","coordinates":[-159.67014732909928,21.956322020305404]},"properties":{"objectid":1372,"island":"Kauai","route":"50","mp":22.935639999999999,"direction":"+MP","location":"Right","lat":21.956311749999998,"lon":-159.67015602999999,"surveyed":"16-FEB-2023","legend":"23"}},{"type":"Feature","id":1374,"geometry":{"type":"Point","coordinates":[-159.35967521131172,21.980644244847372]},"properties":{"objectid":1374,"island":"Kauai","route":"570","mp":0.51505000000000001,"direction":"+MP","location":"Right","lat":21.980638379999998,"lon":-159.35968699,"surveyed":"15-FEB-2023","legend":"0 50"}},{"type":"Feature","id":1375,"geometry":{"type":"Point","coordinates":[-159.35680677570429,21.968552475931222]},"properties":{"objectid":1375,"island":"Kauai","route":"51","mp":0.98372000000000004,"direction":"+MP","location":"Right","lat":21.968546669999998,"lon":-159.35681954,"surveyed":"14-FEB-2023","legend":"1"}},{"type":"Feature","id":1377,"geometry":{"type":"Point","coordinates":[-159.53059095482354,21.925696963401322]},"properties":{"objectid":1377,"island":"Kauai","route":"50","mp":11.961819999999999,"direction":"+MP","location":"Right","lat":21.925689200000001,"lon":-159.53059955999998,"surveyed":"16-FEB-2023","legend":"12"}},{"type":"Feature","id":1378,"geometry":{"type":"Point","coordinates":[-159.53059078231226,21.925697703872689]},"properties":{"objectid":1378,"island":"Kauai","route":"50","mp":11.96175,"direction":"+MP","location":"Right","lat":21.925691569999998,"lon":-159.53059922,"surveyed":"16-FEB-2023","legend":"12"}},{"type":"Feature","id":1379,"geometry":{"type":"Point","coordinates":[-159.50277559985179,21.923321761301448]},"properties":{"objectid":1379,"island":"Kauai","route":"50","mp":9.9615000000000009,"direction":"+MP","location":"Right","lat":21.923313650000001,"lon":-159.50278455,"surveyed":"16-FEB-2023","legend":"10"}},{"type":"Feature","id":1380,"geometry":{"type":"Point","coordinates":[-159.50277557407617,21.923321038628298]},"properties":{"objectid":1380,"island":"Kauai","route":"50","mp":9.9614899999999995,"direction":"+MP","location":"Right","lat":21.923313710000002,"lon":-159.50278437,"surveyed":"16-FEB-2023","legend":"10"}},{"type":"Feature","id":1381,"geometry":{"type":"Point","coordinates":[-159.73894205876783,21.979834706974042]},"properties":{"objectid":1381,"island":"Kauai","route":"50","mp":27.8748,"direction":"+MP","location":"Right","lat":21.979823720000002,"lon":-159.7389507,"surveyed":"16-FEB-2023","legend":"28"}},{"type":"Feature","id":1382,"geometry":{"type":"Point","coordinates":[-159.54174236879203,22.216433723432004]},"properties":{"objectid":1382,"island":"Kauai","route":"560","mp":6.9890799999999995,"direction":"+MP","location":"Right","lat":22.21642207,"lon":-159.54175495999999,"surveyed":"19-FEB-2023","legend":"7"}},{"type":"Feature","id":1383,"geometry":{"type":"Point","coordinates":[-159.54174177124347,22.216433755233496]},"properties":{"objectid":1383,"island":"Kauai","route":"560","mp":6.98909,"direction":"+MP","location":"Right","lat":22.216422269999999,"lon":-159.54175497999998,"surveyed":"19-FEB-2023","legend":"7"}},{"type":"Feature","id":1384,"geometry":{"type":"Point","coordinates":[-159.34969536680092,22.049082591723494]},"properties":{"objectid":1384,"island":"Kauai","route":"580","mp":0.99425000000000008,"direction":"+MP","location":"Right","lat":22.04907339,"lon":-159.34970889000002,"surveyed":"22-FEB-2023","legend":"1; .0"}},{"type":"Feature","id":1385,"geometry":{"type":"Point","coordinates":[-159.51561406668171,21.923669797465028]},"properties":{"objectid":1385,"island":"Kauai","route":"50","mp":10.9603,"direction":"+MP","location":"Right","lat":21.923661760000002,"lon":-159.51562331,"surveyed":"16-FEB-2023","legend":"11"}},{"type":"Feature","id":1386,"geometry":{"type":"Point","coordinates":[-159.51561447950721,21.923669357099573]},"properties":{"objectid":1386,"island":"Kauai","route":"50","mp":10.960290000000001,"direction":"+MP","location":"Right","lat":21.923661620000001,"lon":-159.51562312000001,"surveyed":"16-FEB-2023","legend":"11"}},{"type":"Feature","id":1387,"geometry":{"type":"Point","coordinates":[-159.35219473019734,21.981244560432103]},"properties":{"objectid":1387,"island":"Kauai","route":"570","mp":1.00166,"direction":"+MP","location":"Right","lat":21.981238640000001,"lon":-159.35220739000002,"surveyed":"15-FEB-2023","legend":"1"}},{"type":"Feature","id":1388,"geometry":{"type":"Point","coordinates":[-159.4809802083567,21.939549924595351]},"properties":{"objectid":1388,"island":"Kauai","route":"50","mp":7.9790400000000004,"direction":"+MP","location":"Right","lat":21.939542939999999,"lon":-159.48098831999999,"surveyed":"16-FEB-2023","legend":"8"}},{"type":"Feature","id":1389,"geometry":{"type":"Point","coordinates":[-159.69986579861541,21.961657150198793]},"properties":{"objectid":1389,"island":"Kauai","route":"50","mp":24.93422,"direction":"+MP","location":"Right","lat":21.961646000000002,"lon":-159.69987329,"surveyed":"16-FEB-2023","legend":"25"}},{"type":"Feature","id":1391,"geometry":{"type":"Point","coordinates":[-159.48097958346568,21.939549836079934]},"properties":{"objectid":1391,"island":"Kauai","route":"50","mp":7.9790400000000004,"direction":"+MP","location":"Right","lat":21.939542939999999,"lon":-159.48098831999999,"surveyed":"16-FEB-2023","legend":"8"}},{"type":"Feature","id":1393,"geometry":{"type":"Point","coordinates":[-159.55427307606857,22.223189980907627]},"properties":{"objectid":1393,"island":"Kauai","route":"560","mp":7.9758499999999994,"direction":"+MP","location":"Right","lat":22.223177499999998,"lon":-159.55428497,"surveyed":"19-FEB-2023","legend":"8"}},{"type":"Feature","id":1394,"geometry":{"type":"Point","coordinates":[-159.55427303408072,22.223190654084949]},"properties":{"objectid":1394,"island":"Kauai","route":"560","mp":7.9758599999999999,"direction":"+MP","location":"Right","lat":22.22317752,"lon":-159.55428507000002,"surveyed":"19-FEB-2023","legend":"8"}},{"type":"Feature","id":1395,"geometry":{"type":"Point","coordinates":[-159.68333815712316,21.961141883377589]},"properties":{"objectid":1395,"island":"Kauai","route":"50","mp":23.87274,"direction":"+MP","location":"Right","lat":21.961131390000002,"lon":-159.6833455,"surveyed":"16-FEB-2023","legend":"24"}},{"type":"Feature","id":1397,"geometry":{"type":"Point","coordinates":[-159.71337488302362,21.9664882721192]},"properties":{"objectid":1397,"island":"Kauai","route":"50","mp":25.948370000000001,"direction":"+MP","location":"Right","lat":21.966478039999998,"lon":-159.71338319,"surveyed":"16-FEB-2023","legend":"26"}},{"type":"Feature","id":1398,"geometry":{"type":"Point","coordinates":[-159.36587122104396,21.991861732448065]},"properties":{"objectid":1398,"island":"Kauai","route":"583","mp":0.027480000000000001,"direction":"+MP","location":"Right","lat":21.99185524,"lon":-159.36588471000002,"surveyed":"22-FEB-2023","legend":"0"}},{"type":"Feature","id":1400,"geometry":{"type":"Point","coordinates":[-159.65734701626886,21.950011485350036]},"properties":{"objectid":1400,"island":"Kauai","route":"50","mp":22.006439999999998,"direction":"+MP","location":"Right","lat":21.950001959999998,"lon":-159.65735562,"surveyed":"16-FEB-2023","legend":"22"}},{"type":"Feature","id":1401,"geometry":{"type":"Point","coordinates":[-159.36391618097991,22.048507297550955]},"properties":{"objectid":1401,"island":"Kauai","route":"580","mp":2.04413,"direction":"+MP","location":"Right","lat":22.048498349999999,"lon":-159.36392954000002,"surveyed":"22-FEB-2023","legend":"2"}},{"type":"Feature","id":1402,"geometry":{"type":"Point","coordinates":[-159.45817306217552,21.958578824676312]},"properties":{"objectid":1402,"island":"Kauai","route":"50","mp":5.9512400000000003,"direction":"+MP","location":"Right","lat":21.958571380000002,"lon":-159.45818249000001,"surveyed":"16-FEB-2023","legend":"6"}},{"type":"Feature","id":1403,"geometry":{"type":"Point","coordinates":[-159.54555692292573,21.922386715626658]},"properties":{"objectid":1403,"island":"Kauai","route":"50","mp":12.962209999999999,"direction":"+MP","location":"Right","lat":21.922378869999999,"lon":-159.54556464000001,"surveyed":"16-FEB-2023","legend":"13"}},{"type":"Feature","id":1404,"geometry":{"type":"Point","coordinates":[-159.45817318375617,21.95857928870554]},"properties":{"objectid":1404,"island":"Kauai","route":"50","mp":5.9512299999999998,"direction":"+MP","location":"Right","lat":21.958571299999999,"lon":-159.45818219,"surveyed":"16-FEB-2023","legend":"6"}},{"type":"Feature","id":1405,"geometry":{"type":"Point","coordinates":[-159.54555672301527,21.922386088402046]},"properties":{"objectid":1405,"island":"Kauai","route":"50","mp":12.962219999999999,"direction":"+MP","location":"Right","lat":21.92237871,"lon":-159.54556461999999,"surveyed":"16-FEB-2023","legend":"13"}},{"type":"Feature","id":1406,"geometry":{"type":"Point","coordinates":[-159.74987546547825,21.991446353824571]},"properties":{"objectid":1406,"island":"Kauai","route":"50","mp":28.93779,"direction":"+MP","location":"Right","lat":21.991435409999998,"lon":-159.74988399,"surveyed":"16-FEB-2023","legend":"29"}},{"type":"Feature","id":1407,"geometry":{"type":"Point","coordinates":[-159.56767027634515,22.220907031234212]},"properties":{"objectid":1407,"island":"Kauai","route":"560","mp":8.9748800000000006,"direction":"+MP","location":"Right","lat":22.220894449999999,"lon":-159.56768228999999,"surveyed":"19-FEB-2023","legend":"9"}},{"type":"Feature","id":1408,"geometry":{"type":"Point","coordinates":[-159.56766990897341,22.22090712104913]},"properties":{"objectid":1408,"island":"Kauai","route":"560","mp":8.9748900000000003,"direction":"+MP","location":"Right","lat":22.22089437,"lon":-159.56768267000001,"surveyed":"19-FEB-2023","legend":"9"}},{"type":"Feature","id":1409,"geometry":{"type":"Point","coordinates":[-159.52344740152441,21.925112574372793]},"properties":{"objectid":1409,"island":"Kauai","route":"50","mp":11.500019999999999,"direction":"+MP","location":"Right","lat":21.925104350000002,"lon":-159.52345644000002,"surveyed":"16-FEB-2023","legend":"11 .50"}},{"type":"Feature","id":1410,"geometry":{"type":"Point","coordinates":[-159.5234475047381,21.92511193802417]},"properties":{"objectid":1410,"island":"Kauai","route":"50","mp":11.500019999999999,"direction":"+MP","location":"Right","lat":21.925104350000002,"lon":-159.52345644000002,"surveyed":"16-FEB-2023","legend":"11 .50"}},{"type":"Feature","id":1413,"geometry":{"type":"Point","coordinates":[-159.59611140732974,21.907976000034189]},"properties":{"objectid":1413,"island":"Kauai","route":"50","mp":16.937070000000002,"direction":"+MP","location":"Right","lat":21.907966980000001,"lon":-159.59611973,"surveyed":"16-FEB-2023","legend":"17"}},{"type":"Feature","id":1414,"geometry":{"type":"Point","coordinates":[-159.5961115271015,21.907975235297361]},"properties":{"objectid":1414,"island":"Kauai","route":"50","mp":16.937070000000002,"direction":"+MP","location":"Right","lat":21.907966980000001,"lon":-159.59611973,"surveyed":"16-FEB-2023","legend":"17"}},{"type":"Feature","id":1415,"geometry":{"type":"Point","coordinates":[-159.42168720535261,21.96413456807587]},"properties":{"objectid":1415,"island":"Kauai","route":"50","mp":3.4711699999999999,"direction":"+MP","location":"Right","lat":21.964127159999997,"lon":-159.42169864000002,"surveyed":"16-FEB-2023","legend":"3 50"}},{"type":"Feature","id":1418,"geometry":{"type":"Point","coordinates":[-159.5148088688874,22.204839718488707]},"properties":{"objectid":1418,"island":"Kauai","route":"560","mp":4.0098600000000006,"direction":"+MP","location":"Right","lat":22.204827609999999,"lon":-159.51482181,"surveyed":"19-FEB-2023","legend":"4"}},{"type":"Feature","id":1420,"geometry":{"type":"Point","coordinates":[-159.51480866949143,22.204840110294835]},"properties":{"objectid":1420,"island":"Kauai","route":"560","mp":4.0098900000000004,"direction":"+MP","location":"Right","lat":22.204827829999999,"lon":-159.51482236000001,"surveyed":"19-FEB-2023","legend":"4"}},{"type":"Feature","id":1421,"geometry":{"type":"Point","coordinates":[-159.42168676826296,21.964135129332867]},"properties":{"objectid":1421,"island":"Kauai","route":"50","mp":3.4711699999999999,"direction":"+MP","location":"Right","lat":21.964127159999997,"lon":-159.42169864000002,"surveyed":"16-FEB-2023","legend":"3 50"}},{"type":"Feature","id":1428,"geometry":{"type":"Point","coordinates":[-159.63576369894236,21.929179373344322]},"properties":{"objectid":1428,"island":"Kauai","route":"50","mp":19.952280000000002,"direction":"+MP","location":"Right","lat":21.929170879999997,"lon":-159.63577349000002,"surveyed":"16-FEB-2023","legend":"20"}},{"type":"Feature","id":1429,"geometry":{"type":"Point","coordinates":[-159.3845988037238,21.97091290315905]},"properties":{"objectid":1429,"island":"Kauai","route":"50","mp":0.97894999999999999,"direction":"+MP","location":"Right","lat":21.97090652,"lon":-159.38461061000001,"surveyed":"16-FEB-2023","legend":"1"}},{"type":"Feature","id":1434,"geometry":{"type":"Point","coordinates":[-159.39813855942512,21.966016099599443]},"properties":{"objectid":1434,"island":"Kauai","route":"50","mp":1.9118599999999999,"direction":"+MP","location":"Right","lat":21.966010230000002,"lon":-159.39815016,"surveyed":"16-FEB-2023","legend":"2"}},{"type":"Feature","id":1435,"geometry":{"type":"Point","coordinates":[-159.56060986420363,21.92045019381915]},"properties":{"objectid":1435,"island":"Kauai","route":"50","mp":13.95604,"direction":"+MP","location":"Right","lat":21.920441270000001,"lon":-159.56061778,"surveyed":"16-FEB-2023","legend":"14"}},{"type":"Feature","id":1436,"geometry":{"type":"Point","coordinates":[-159.56060969654499,21.920449412016659]},"properties":{"objectid":1436,"island":"Kauai","route":"50","mp":13.95604,"direction":"+MP","location":"Right","lat":21.920441270000001,"lon":-159.56061778,"surveyed":"16-FEB-2023","legend":"14"}},{"type":"Feature","id":1453,"geometry":{"type":"Point","coordinates":[-159.61011724482543,21.91298924330486]},"properties":{"objectid":1453,"island":"Kauai","route":"50","mp":17.930239999999998,"direction":"+MP","location":"Right","lat":21.912980860000001,"lon":-159.61012606,"surveyed":"16-FEB-2023","legend":"18"}},{"type":"Feature","id":1454,"geometry":{"type":"Point","coordinates":[-159.61011693193973,21.912989885899872]},"properties":{"objectid":1454,"island":"Kauai","route":"50","mp":17.930199999999999,"direction":"+MP","location":"Right","lat":21.912980740000002,"lon":-159.61012552999998,"surveyed":"16-FEB-2023","legend":"18"}},{"type":"Feature","id":1456,"geometry":{"type":"Point","coordinates":[-159.40632631334964,21.963197035270873]},"properties":{"objectid":1456,"island":"Kauai","route":"50","mp":2.4775800000000001,"direction":"+MP","location":"Right","lat":21.96318969,"lon":-159.40633735999998,"surveyed":"16-FEB-2023","legend":"2 50"}},{"type":"Feature","id":1459,"geometry":{"type":"Point","coordinates":[-159.58922341089061,21.909234240963741]},"properties":{"objectid":1459,"island":"Kauai","route":"50","mp":16.48507,"direction":"+MP","location":"Right","lat":21.90922621,"lon":-159.58923184,"surveyed":"16-FEB-2023","legend":"16; .5"}},{"type":"Feature","id":1460,"geometry":{"type":"Point","coordinates":[-159.58922322585448,21.909234682501179]},"properties":{"objectid":1460,"island":"Kauai","route":"50","mp":16.485060000000001,"direction":"+MP","location":"Right","lat":21.909226129999997,"lon":-159.58923166,"surveyed":"16-FEB-2023","legend":"16; .5"}},{"type":"Feature","id":1461,"geometry":{"type":"Point","coordinates":[-159.43631403205814,21.961487986409292]},"properties":{"objectid":1461,"island":"Kauai","route":"50","mp":4.4622099999999998,"direction":"+MP","location":"Right","lat":21.96147977,"lon":-159.43632402,"surveyed":"16-FEB-2023","legend":"4 50"}},{"type":"Feature","id":1462,"geometry":{"type":"Point","coordinates":[-159.4363140028795,21.961487311615624]},"properties":{"objectid":1462,"island":"Kauai","route":"50","mp":4.4622099999999998,"direction":"+MP","location":"Right","lat":21.96147977,"lon":-159.43632402,"surveyed":"16-FEB-2023","legend":"4 50"}},{"type":"Feature","id":1463,"geometry":{"type":"Point","coordinates":[-159.62349181115707,21.919627825197345]},"properties":{"objectid":1463,"island":"Kauai","route":"50","mp":18.924150000000001,"direction":"+MP","location":"Right","lat":21.919618849999999,"lon":-159.62350077000002,"surveyed":"16-FEB-2023","legend":"19"}},{"type":"Feature","id":1464,"geometry":{"type":"Point","coordinates":[-159.6234924799131,21.919627316743341]},"properties":{"objectid":1464,"island":"Kauai","route":"50","mp":18.924150000000001,"direction":"+MP","location":"Right","lat":21.919618849999999,"lon":-159.62350077000002,"surveyed":"16-FEB-2023","legend":"19"}},{"type":"Feature","id":1469,"geometry":{"type":"Point","coordinates":[-159.5844572117405,21.905027101861087]},"properties":{"objectid":1469,"island":"Kauai","route":"50","mp":15.92793,"direction":"+MP","location":"Right","lat":21.905018800000001,"lon":-159.58446634999999,"surveyed":"16-FEB-2023","legend":"16; .0"}},{"type":"Feature","id":1470,"geometry":{"type":"Point","coordinates":[-159.58445760299594,21.905026660499672]},"properties":{"objectid":1470,"island":"Kauai","route":"50","mp":15.92793,"direction":"+MP","location":"Right","lat":21.905018800000001,"lon":-159.58446634999999,"surveyed":"16-FEB-2023","legend":"16; .0"}},{"type":"Feature","id":1471,"geometry":{"type":"Point","coordinates":[-159.44404027443147,21.962285897900777]},"properties":{"objectid":1471,"island":"Kauai","route":"50","mp":4.9663700000000004,"direction":"+MP","location":"Right","lat":21.96227837,"lon":-159.44404996999998,"surveyed":"16-FEB-2023","legend":"5"}},{"type":"Feature","id":1472,"geometry":{"type":"Point","coordinates":[-159.44404043009507,21.962286435027451]},"properties":{"objectid":1472,"island":"Kauai","route":"50","mp":4.9663700000000004,"direction":"+MP","location":"Right","lat":21.96227837,"lon":-159.44404996999998,"surveyed":"16-FEB-2023","legend":"5"}},{"type":"Feature","id":1473,"geometry":{"type":"Point","coordinates":[-159.3540772476037,21.957801824186813]},"properties":{"objectid":1473,"island":"Kauai","route":"58","mp":0.0093900000000000008,"direction":"-MP","location":"Right","lat":21.957796519999999,"lon":-159.35409098000002,"surveyed":"23-FEB-2023","legend":"0"}},{"type":"Feature","id":1477,"geometry":{"type":"Point","coordinates":[-159.4139819405116,21.963213826355311]},"properties":{"objectid":1477,"island":"Kauai","route":"50","mp":2.9723300000000004,"direction":"+MP","location":"Right","lat":21.96320553,"lon":-159.41399241000002,"surveyed":"16-FEB-2023","legend":"3"}},{"type":"Feature","id":1478,"geometry":{"type":"Point","coordinates":[-159.41398223820389,21.963213279924879]},"properties":{"objectid":1478,"island":"Kauai","route":"50","mp":2.9723600000000001,"direction":"+MP","location":"Right","lat":21.963205670000001,"lon":-159.41399286000001,"surveyed":"16-FEB-2023","legend":"3"}},{"type":"Feature","id":1483,"geometry":{"type":"Point","coordinates":[-159.45756414667883,22.207283999145375]},"properties":{"objectid":1483,"island":"Kauai","route":"56","mp":26.94378,"direction":"-MP","location":"Right","lat":22.207273300000001,"lon":-159.45757784,"surveyed":"22-FEB-2023","legend":"27"}},{"type":"Feature","id":1484,"geometry":{"type":"Point","coordinates":[-159.45756414667883,22.207283999145375]},"properties":{"objectid":1484,"island":"Kauai","route":"56","mp":26.94378,"direction":"-MP","location":"Right","lat":22.207273300000001,"lon":-159.45757784,"surveyed":"22-FEB-2023","legend":"27"}},{"type":"Feature","id":1489,"geometry":{"type":"Point","coordinates":[-159.34605152350355,22.006118517268625]},"properties":{"objectid":1489,"island":"Kauai","route":"56","mp":2.9835400000000001,"direction":"+MP","location":"Right","lat":22.00611052,"lon":-159.34606416,"surveyed":"13-FEB-2023","legend":"3; .0"}},{"type":"Feature","id":1491,"geometry":{"type":"Point","coordinates":[-159.35393883036269,21.994824918970181]},"properties":{"objectid":1491,"island":"Kauai","route":"56","mp":1.9759700000000002,"direction":"+MP","location":"Right","lat":21.994818390000002,"lon":-159.35395171000002,"surveyed":"13-FEB-2023","legend":"2"}},{"type":"Feature","id":1492,"geometry":{"type":"Point","coordinates":[-159.34127586809973,22.034443069753614]},"properties":{"objectid":1492,"island":"Kauai","route":"56","mp":4.9882999999999997,"direction":"+MP","location":"Right","lat":22.034434930000003,"lon":-159.34128960999999,"surveyed":"13-FEB-2023","legend":"5; .0"}},{"type":"Feature","id":1493,"geometry":{"type":"Point","coordinates":[-159.33935158612522,22.040754189143005]},"properties":{"objectid":1493,"island":"Kauai","route":"56","mp":5.4458600000000006,"direction":"+MP","location":"Right","lat":22.040747210000003,"lon":-159.33936574000001,"surveyed":"13-FEB-2023","legend":"5; .5"}},{"type":"Feature","id":1497,"geometry":{"type":"Point","coordinates":[-159.34442691834758,22.013721644405894]},"properties":{"objectid":1497,"island":"Kauai","route":"56","mp":3.51762,"direction":"+MP","location":"Right","lat":22.01371413,"lon":-159.34444046000002,"surveyed":"13-FEB-2023","legend":"3; .50"}},{"type":"Feature","id":1498,"geometry":{"type":"Point","coordinates":[-159.66417139983992,21.962939656402195]},"properties":{"objectid":1498,"island":"Kauai","route":"550","mp":1.05263,"direction":"+MP","location":"Right","lat":21.96293124,"lon":-159.66418037,"surveyed":"14-FEB-2023","legend":"1"}},{"type":"Feature","id":1503,"geometry":{"type":"Point","coordinates":[-159.34199974211242,22.020159140104738]},"properties":{"objectid":1503,"island":"Kauai","route":"56","mp":3.9903599999999999,"direction":"+MP","location":"Right","lat":22.020152459999998,"lon":-159.34201391000002,"surveyed":"13-FEB-2023","legend":"4; .0"}},{"type":"Feature","id":1504,"geometry":{"type":"Point","coordinates":[-159.66407839515969,21.976349497650876]},"properties":{"objectid":1504,"island":"Kauai","route":"550","mp":2.0001700000000002,"direction":"+MP","location":"Right","lat":21.976340969999999,"lon":-159.66408697,"surveyed":"14-FEB-2023","legend":"2"}},{"type":"Feature","id":1505,"geometry":{"type":"Point","coordinates":[-159.67242431587482,21.987597696182529]},"properties":{"objectid":1505,"island":"Kauai","route":"550","mp":3.0001900000000004,"direction":"+MP","location":"Right","lat":21.987588779999999,"lon":-159.67243310000001,"surveyed":"14-FEB-2023","legend":"3"}},{"type":"Feature","id":1506,"geometry":{"type":"Point","coordinates":[-159.67738538020183,22.000380468218982]},"properties":{"objectid":1506,"island":"Kauai","route":"550","mp":3.9917699999999998,"direction":"+MP","location":"Right","lat":22.00037086,"lon":-159.67739404,"surveyed":"14-FEB-2023","legend":"4"}},{"type":"Feature","id":1507,"geometry":{"type":"Point","coordinates":[-159.67725940956319,22.01344760449798]},"properties":{"objectid":1507,"island":"Kauai","route":"550","mp":4.9901,"direction":"+MP","location":"Right","lat":22.01343808,"lon":-159.67726819000001,"surveyed":"14-FEB-2023","legend":"5"}},{"type":"Feature","id":1511,"geometry":{"type":"Point","coordinates":[-159.67257193100124,22.025461029507987]},"properties":{"objectid":1511,"island":"Kauai","route":"550","mp":5.9909499999999998,"direction":"+MP","location":"Right","lat":22.025451330000003,"lon":-159.67258174000003,"surveyed":"14-FEB-2023","legend":"6 00"}},{"type":"Feature","id":1512,"geometry":{"type":"Point","coordinates":[-159.67100624503732,22.031986977748868]},"properties":{"objectid":1512,"island":"Kauai","route":"550","mp":6.4929799999999993,"direction":"+MP","location":"Right","lat":22.03197814,"lon":-159.67101511999999,"surveyed":"14-FEB-2023","legend":"6 50"}},{"type":"Feature","id":1516,"geometry":{"type":"Point","coordinates":[-159.67662106823795,22.103055778403132]},"properties":{"objectid":1516,"island":"Kauai","route":"550","mp":12.95595,"direction":"+MP","location":"Right","lat":22.103045810000001,"lon":-159.67663042000001,"surveyed":"14-FEB-2023","legend":"13"}},{"type":"Feature","id":1517,"geometry":{"type":"Point","coordinates":[-159.66132295290237,22.046221791973746]},"properties":{"objectid":1517,"island":"Kauai","route":"550","mp":7.9797799999999999,"direction":"+MP","location":"Right","lat":22.04621268,"lon":-159.66133221000001,"surveyed":"14-FEB-2023","legend":"8 00"}},{"type":"Feature","id":1518,"geometry":{"type":"Point","coordinates":[-159.67049417578846,22.114208298521525]},"properties":{"objectid":1518,"island":"Kauai","route":"550","mp":13.95092,"direction":"+MP","location":"Right","lat":22.114198430000002,"lon":-159.67050406999999,"surveyed":"14-FEB-2023","legend":"14"}},{"type":"Feature","id":1522,"geometry":{"type":"Point","coordinates":[-159.32429648230817,22.057958476651827]},"properties":{"objectid":1522,"island":"Kauai","route":"56","mp":7.0379499999999995,"direction":"+MP","location":"Right","lat":22.057950949999999,"lon":-159.32431088999999,"surveyed":"13-FEB-2023","legend":"7"}},{"type":"Feature","id":1524,"geometry":{"type":"Point","coordinates":[-159.65802369086182,22.049135380883843]},"properties":{"objectid":1524,"island":"Kauai","route":"550","mp":8.4804099999999991,"direction":"+MP","location":"Right","lat":22.049123980000001,"lon":-159.65803127999999,"surveyed":"14-FEB-2023","legend":"8 50"}},{"type":"Feature","id":1525,"geometry":{"type":"Point","coordinates":[-159.66216854338904,22.054271726598209]},"properties":{"objectid":1525,"island":"Kauai","route":"550","mp":8.9612800000000004,"direction":"+MP","location":"Right","lat":22.054260930000002,"lon":-159.66217783000002,"surveyed":"14-FEB-2023","legend":"9"}},{"type":"Feature","id":1528,"geometry":{"type":"Point","coordinates":[-159.66203775842396,22.066924306578759]},"properties":{"objectid":1528,"island":"Kauai","route":"550","mp":9.9628300000000003,"direction":"+MP","location":"Right","lat":22.066914069999999,"lon":-159.66204741999999,"surveyed":"14-FEB-2023","legend":"10"}},{"type":"Feature","id":1531,"geometry":{"type":"Point","coordinates":[-159.66622853821903,22.077904542185077]},"properties":{"objectid":1531,"island":"Kauai","route":"550","mp":10.959809999999999,"direction":"+MP","location":"Right","lat":22.07789326,"lon":-159.66623781000001,"surveyed":"14-FEB-2023","legend":"11"}},{"type":"Feature","id":1533,"geometry":{"type":"Point","coordinates":[-159.31940587492386,22.070752059848626]},"properties":{"objectid":1533,"island":"Kauai","route":"56","mp":8.0311900000000005,"direction":"+MP","location":"Right","lat":22.07074373,"lon":-159.31942051000001,"surveyed":"13-FEB-2023","legend":"8"}},{"type":"Feature","id":1536,"geometry":{"type":"Point","coordinates":[-159.67182793123328,21.957586476361318]},"properties":{"objectid":1536,"island":"Kauai","route":"550","mp":0.01482,"direction":"+MP","location":"Right","lat":21.95757802,"lon":-159.67183660999999,"surveyed":"14-FEB-2023","legend":"0"}},{"type":"Feature","id":1539,"geometry":{"type":"Point","coordinates":[-159.34395421389959,21.99516614523451]},"properties":{"objectid":1539,"island":"Kauai","route":"51","mp":3.04081,"direction":"+MP","location":"Right","lat":21.99515933,"lon":-159.34396755,"surveyed":"14-FEB-2023","legend":"3 00"}},{"type":"Feature","id":1544,"geometry":{"type":"Point","coordinates":[-159.35417906577302,21.957977354395485]},"properties":{"objectid":1544,"island":"Kauai","route":"58","mp":0.0071600000000000006,"direction":"+MP","location":"Right","lat":21.957970199999998,"lon":-159.35419127,"surveyed":"20-FEB-2023","legend":"0"}},{"type":"Feature","id":1557,"geometry":{"type":"Point","coordinates":[-159.36677025975084,21.962532521321627]},"properties":{"objectid":1557,"island":"Kauai","route":"58","mp":0.98520000000000008,"direction":"+MP","location":"Right","lat":21.96252591,"lon":-159.3667834,"surveyed":"20-FEB-2023","legend":"1"}},{"type":"Feature","id":1568,"geometry":{"type":"Point","coordinates":[-159.46965355200567,21.948404469077158]},"properties":{"objectid":1568,"island":"Kauai","route":"50","mp":6.9806400000000002,"direction":"+MP","location":"Right","lat":21.948397079999999,"lon":-159.46966304,"surveyed":"16-FEB-2023","legend":"7"}},{"type":"Feature","id":1569,"geometry":{"type":"Point","coordinates":[-159.52162168448834,22.212899762209631]},"properties":{"objectid":1569,"island":"Kauai","route":"560","mp":4.9981799999999996,"direction":"-MP","location":"Right","lat":22.212888600000003,"lon":-159.52163434000002,"surveyed":"19-FEB-2023","legend":"5"}},{"type":"Feature","id":1570,"geometry":{"type":"Point","coordinates":[-159.52162170673972,22.212899744973612]},"properties":{"objectid":1570,"island":"Kauai","route":"560","mp":4.9981799999999996,"direction":"-MP","location":"Right","lat":22.212888600000003,"lon":-159.52163434000002,"surveyed":"19-FEB-2023","legend":"5"}},{"type":"Feature","id":1571,"geometry":{"type":"Point","coordinates":[-159.77927800074511,22.02549087580876]},"properties":{"objectid":1571,"island":"Kauai","route":"50","mp":31.98237,"direction":"+MP","location":"Right","lat":22.025480510000001,"lon":-159.77928653000001,"surveyed":"16-FEB-2023","legend":"32"}},{"type":"Feature","id":1572,"geometry":{"type":"Point","coordinates":[-159.35109834818564,21.981738495596975]},"properties":{"objectid":1572,"island":"Kauai","route":"51","mp":1.9740000000000002,"direction":"+MP","location":"Right","lat":21.98173203,"lon":-159.35111190000001,"surveyed":"14-FEB-2023","legend":"2"}},{"type":"Feature","id":1575,"geometry":{"type":"Point","coordinates":[-159.34701461624874,21.987794749635601]},"properties":{"objectid":1575,"island":"Kauai","route":"51","mp":2.4742500000000001,"direction":"+MP","location":"Right","lat":21.987788380000001,"lon":-159.34702809000001,"surveyed":"14-FEB-2023","legend":"2 50"}},{"type":"Feature","id":1578,"geometry":{"type":"Point","coordinates":[-159.44351693875461,22.21142086054919]},"properties":{"objectid":1578,"island":"Kauai","route":"56","mp":25.948509999999999,"direction":"-MP","location":"Right","lat":22.211409700000001,"lon":-159.44353142,"surveyed":"22-FEB-2023","legend":"26"}},{"type":"Feature","id":1584,"geometry":{"type":"Point","coordinates":[-159.31826047895271,22.076202142629977]},"properties":{"objectid":1584,"island":"Kauai","route":"56","mp":8.394169999999999,"direction":"-MP","location":"Right","lat":22.076193750000002,"lon":-159.3182745,"surveyed":"22-FEB-2023","legend":"0"}},{"type":"Feature","id":1589,"geometry":{"type":"Point","coordinates":[-159.31508212781969,22.153195556960902]},"properties":{"objectid":1589,"island":"Kauai","route":"56","mp":14.431749999999999,"direction":"-MP","location":"Right","lat":22.153186399999999,"lon":-159.31509602,"surveyed":"22-FEB-2023","legend":"14; .5"}},{"type":"Feature","id":1601,"geometry":{"type":"Point","coordinates":[-159.58460081591016,21.904733650013959]},"properties":{"objectid":1601,"island":"Kauai","route":"541","mp":0.013380000000000001,"direction":"+MP","location":"Right","lat":21.904726319999998,"lon":-159.58460818999998,"surveyed":"14-FEB-2023","legend":"0"}},{"type":"Feature","id":1631,"geometry":{"type":"Point","coordinates":[-159.58771786386845,21.900404375120864]},"properties":{"objectid":1631,"island":"Kauai","route":"541","mp":0.37262000000000006,"direction":"+MP","location":"Right","lat":21.900396280000002,"lon":-159.58772579000001,"surveyed":"14-FEB-2023","legend":"0 37"}},{"type":"Feature","id":1641,"geometry":{"type":"Point","coordinates":[-159.37067106280512,21.976270233184344]},"properties":{"objectid":1641,"island":"Kauai","route":"56","mp":0.0024600000000000004,"direction":"-MP","location":"Right","lat":21.976262719999998,"lon":-159.37068281999998,"surveyed":"22-FEB-2023","legend":"0"}},{"type":"Feature","id":1642,"geometry":{"type":"Point","coordinates":[-159.37067134590561,21.976270707757497]},"properties":{"objectid":1642,"island":"Kauai","route":"56","mp":0.0024600000000000004,"direction":"-MP","location":"Right","lat":21.976262719999998,"lon":-159.37068281999998,"surveyed":"22-FEB-2023","legend":"0"}},{"type":"Feature","id":1653,"geometry":{"type":"Point","coordinates":[-159.35770108405021,22.18212521986479]},"properties":{"objectid":1653,"island":"Kauai","route":"56","mp":18.471689999999999,"direction":"+MP","location":"Right","lat":22.182113949999998,"lon":-159.35771573,"surveyed":"13-FEB-2023","legend":"18 .50"}},{"type":"Feature","id":1672,"geometry":{"type":"Point","coordinates":[-159.30457375519677,22.137149145610216]},"properties":{"objectid":1672,"island":"Kauai","route":"56","mp":12.98334,"direction":"+MP","location":"Right","lat":22.13713942,"lon":-159.30458953999999,"surveyed":"13-FEB-2023","legend":"13"}},{"type":"Feature","id":1675,"geometry":{"type":"Point","coordinates":[-159.36093459447727,22.188145845197567]},"properties":{"objectid":1675,"island":"Kauai","route":"56","mp":18.9649,"direction":"+MP","location":"Right","lat":22.188135819999999,"lon":-159.36094978,"surveyed":"13-FEB-2023","legend":"19"}},{"type":"Feature","id":1677,"geometry":{"type":"Point","coordinates":[-159.31235871320484,22.082432355854856]},"properties":{"objectid":1677,"island":"Kauai","route":"56","mp":8.9927599999999988,"direction":"+MP","location":"Right","lat":22.082424570000001,"lon":-159.31237432,"surveyed":"13-FEB-2023","legend":"9"}},{"type":"Feature","id":1678,"geometry":{"type":"Point","coordinates":[-159.36321153115986,22.20159238679452]},"properties":{"objectid":1678,"island":"Kauai","route":"56","mp":19.964200000000002,"direction":"+MP","location":"Right","lat":22.201580849999999,"lon":-159.36322658,"surveyed":"13-FEB-2023","legend":"20"}},{"type":"Feature","id":1682,"geometry":{"type":"Point","coordinates":[-159.41868062791369,22.213822711459809]},"properties":{"objectid":1682,"island":"Kauai","route":"56","mp":23.96133,"direction":"+MP","location":"Right","lat":22.213810540000001,"lon":-159.41869495,"surveyed":"13-FEB-2023","legend":"24; .0"}},{"type":"Feature","id":1683,"geometry":{"type":"Point","coordinates":[-159.42617603991306,22.212443386261608]},"properties":{"objectid":1683,"island":"Kauai","route":"56","mp":24.47926,"direction":"+MP","location":"Right","lat":22.212431479999999,"lon":-159.42618973,"surveyed":"13-FEB-2023","legend":"24; .5"}},{"type":"Feature","id":1684,"geometry":{"type":"Point","coordinates":[-159.39397957644562,22.202956245863923]},"properties":{"objectid":1684,"island":"Kauai","route":"56","mp":21.98021,"direction":"+MP","location":"Right","lat":22.202944330000001,"lon":-159.39399395000001,"surveyed":"13-FEB-2023","legend":"22; .0"}},{"type":"Feature","id":1685,"geometry":{"type":"Point","coordinates":[-159.40163439021055,22.201579690126291]},"properties":{"objectid":1685,"island":"Kauai","route":"56","mp":22.482839999999999,"direction":"+MP","location":"Right","lat":22.20156811,"lon":-159.40164895000001,"surveyed":"13-FEB-2023","legend":"22; .5"}},{"type":"Feature","id":1686,"geometry":{"type":"Point","coordinates":[-159.43218972654796,22.208190629166786]},"properties":{"objectid":1686,"island":"Kauai","route":"56","mp":24.978590000000001,"direction":"+MP","location":"Right","lat":22.208178580000002,"lon":-159.43220396999999,"surveyed":"13-FEB-2023","legend":"25; .0"}},{"type":"Feature","id":1687,"geometry":{"type":"Point","coordinates":[-159.31753575529024,22.160589482274037]},"properties":{"objectid":1687,"island":"Kauai","route":"56","mp":14.989469999999999,"direction":"+MP","location":"Right","lat":22.160579139999999,"lon":-159.31755164,"surveyed":"13-FEB-2023","legend":"15; .0"}},{"type":"Feature","id":1691,"geometry":{"type":"Point","coordinates":[-159.30764015439738,22.088386046575202]},"properties":{"objectid":1691,"island":"Kauai","route":"56","mp":9.5082300000000011,"direction":"+MP","location":"Right","lat":22.08837784,"lon":-159.30765538,"surveyed":"13-FEB-2023","legend":"9 .50"}},{"type":"Feature","id":1692,"geometry":{"type":"Point","coordinates":[-159.40887032362872,22.2030976613398]},"properties":{"objectid":1692,"island":"Kauai","route":"56","mp":22.96067,"direction":"+MP","location":"Right","lat":22.203085550000001,"lon":-159.40888484000001,"surveyed":"13-FEB-2023","legend":"23; .0"}},{"type":"Feature","id":1693,"geometry":{"type":"Point","coordinates":[-159.43635479195481,22.213363266135559]},"properties":{"objectid":1693,"island":"Kauai","route":"56","mp":25.449360000000002,"direction":"+MP","location":"Right","lat":22.213351379999999,"lon":-159.43636948,"surveyed":"13-FEB-2023","legend":"25; .5"}},{"type":"Feature","id":1699,"geometry":{"type":"Point","coordinates":[-159.31559778717843,22.146327176531496]},"properties":{"objectid":1699,"island":"Kauai","route":"56","mp":13.97283,"direction":"+MP","location":"Right","lat":22.14631739,"lon":-159.31561364999999,"surveyed":"13-FEB-2023","legend":"14"}},{"type":"Feature","id":1700,"geometry":{"type":"Point","coordinates":[-159.41298199979872,22.209269045046202]},"properties":{"objectid":1700,"island":"Kauai","route":"56","mp":23.476660000000003,"direction":"+MP","location":"Right","lat":22.209257579999999,"lon":-159.41299714000002,"surveyed":"13-FEB-2023","legend":"23; .5"}},{"type":"Feature","id":1703,"geometry":{"type":"Point","coordinates":[-159.37579909569288,22.055449146354306]},"properties":{"objectid":1703,"island":"Kauai","route":"580","mp":2.98373,"direction":"+MP","location":"Right","lat":22.055439569999997,"lon":-159.37581288000001,"surveyed":"22-FEB-2023","legend":"3"}},{"type":"Feature","id":1704,"geometry":{"type":"Point","coordinates":[-159.47375205791568,22.213150258621056]},"properties":{"objectid":1704,"island":"Kauai","route":"56","mp":28.122299999999999,"direction":"+MP","location":"Right","lat":22.21313761,"lon":-159.47376559,"surveyed":"13-FEB-2023","legend":"28"}},{"type":"Feature","id":1705,"geometry":{"type":"Point","coordinates":[-159.47375203614641,22.213147531286548]},"properties":{"objectid":1705,"island":"Kauai","route":"56","mp":28.122299999999999,"direction":"+MP","location":"Right","lat":22.213135260000001,"lon":-159.47376553000001,"surveyed":"13-FEB-2023","legend":"0"}},{"type":"Feature","id":1711,"geometry":{"type":"Point","coordinates":[-159.44366339539914,22.211551077908673]},"properties":{"objectid":1711,"island":"Kauai","route":"56","mp":25.977689999999999,"direction":"+MP","location":"Right","lat":22.211539260000002,"lon":-159.44367690999999,"surveyed":"13-FEB-2023","legend":"26; .0"}},{"type":"Feature","id":1713,"geometry":{"type":"Point","coordinates":[-159.4502680669658,22.209771766829206]},"properties":{"objectid":1713,"island":"Kauai","route":"56","mp":26.451139999999999,"direction":"+MP","location":"Right","lat":22.209759570000003,"lon":-159.45028149999999,"surveyed":"13-FEB-2023","legend":"26; .5"}},{"type":"Feature","id":1716,"geometry":{"type":"Point","coordinates":[-159.3259016644632,22.172376232328279]},"properties":{"objectid":1716,"island":"Kauai","route":"56","mp":15.97414,"direction":"+MP","location":"Right","lat":22.172366109999999,"lon":-159.32591718999998,"surveyed":"13-FEB-2023","legend":"16; .0"}},{"type":"Feature","id":1720,"geometry":{"type":"Point","coordinates":[-159.45713202550283,22.207326775555636]},"properties":{"objectid":1720,"island":"Kauai","route":"56","mp":26.946490000000001,"direction":"+MP","location":"Right","lat":22.207314790000002,"lon":-159.45714537999999,"surveyed":"13-FEB-2023","legend":"27; .0"}},{"type":"Feature","id":1727,"geometry":{"type":"Point","coordinates":[-159.30229277555483,22.10864358670289]},"properties":{"objectid":1727,"island":"Kauai","route":"56","mp":10.97723,"direction":"+MP","location":"Right","lat":22.108634559999999,"lon":-159.30230908999999,"surveyed":"13-FEB-2023","legend":"11"}},{"type":"Feature","id":1741,"geometry":{"type":"Point","coordinates":[-159.38745636532781,22.057076302325125]},"properties":{"objectid":1741,"island":"Kauai","route":"580","mp":3.9753799999999999,"direction":"+MP","location":"Right","lat":22.057067029999999,"lon":-159.38746943000001,"surveyed":"22-FEB-2023","legend":"4"}},{"type":"Feature","id":1749,"geometry":{"type":"Point","coordinates":[-159.33599459894023,22.180980017855763]},"properties":{"objectid":1749,"island":"Kauai","route":"56","mp":16.985790000000001,"direction":"+MP","location":"Right","lat":22.180968880000002,"lon":-159.33600968000002,"surveyed":"13-FEB-2023","legend":"17"}},{"type":"Feature","id":1758,"geometry":{"type":"Point","coordinates":[-159.34243135664502,22.180016683878058]},"properties":{"objectid":1758,"island":"Kauai","route":"56","mp":17.405889999999999,"direction":"+MP","location":"Right","lat":22.180005009999999,"lon":-159.34244505999999,"surveyed":"13-FEB-2023","legend":"17 .50"}},{"type":"Feature","id":1760,"geometry":{"type":"Point","coordinates":[-159.3424312078578,22.180016128584164]},"properties":{"objectid":1760,"island":"Kauai","route":"56","mp":17.405929999999998,"direction":"+MP","location":"Right","lat":22.180005080000001,"lon":-159.34244591999999,"surveyed":"13-FEB-2023","legend":"56"}},{"type":"Feature","id":1762,"geometry":{"type":"Point","coordinates":[-159.30087721392172,22.123003434632633]},"properties":{"objectid":1762,"island":"Kauai","route":"56","mp":11.97959,"direction":"+MP","location":"Right","lat":22.122994260000002,"lon":-159.300894,"surveyed":"13-FEB-2023","legend":"12"}},{"type":"Feature","id":1767,"geometry":{"type":"Point","coordinates":[-159.35096525890154,22.17866186336806]},"properties":{"objectid":1767,"island":"Kauai","route":"56","mp":17.967470000000002,"direction":"+MP","location":"Right","lat":22.178651089999999,"lon":-159.35097998999998,"surveyed":"13-FEB-2023","legend":"18"}},{"type":"Feature","id":1770,"geometry":{"type":"Point","coordinates":[-159.47892758000961,21.908183876945671]},"properties":{"objectid":1770,"island":"Kauai","route":"530","mp":2.47445,"direction":"-MP","location":"Right","lat":21.908177250000001,"lon":-159.47893718,"surveyed":"15-FEB-2023","legend":"2; .5"}},{"type":"Feature","id":1771,"geometry":{"type":"Point","coordinates":[-159.49049137732754,21.916871789581059]},"properties":{"objectid":1771,"island":"Kauai","route":"530","mp":1.4826999999999999,"direction":"-MP","location":"Right","lat":21.916865029999997,"lon":-159.49050044999998,"surveyed":"15-FEB-2023","legend":"1 ; .5"}},{"type":"Feature","id":1773,"geometry":{"type":"Point","coordinates":[-159.50431914172668,21.921492729061121]},"properties":{"objectid":1773,"island":"Kauai","route":"530","mp":0.50451000000000001,"direction":"+MP","location":"Right","lat":21.921486519999998,"lon":-159.50432735000001,"surveyed":"15-FEB-2023","legend":"0 ; .5"}},{"type":"Feature","id":1775,"geometry":{"type":"Point","coordinates":[-159.49817650107738,21.918080731446224]},"properties":{"objectid":1775,"island":"Kauai","route":"530","mp":0.98238000000000003,"direction":"-MP","location":"Right","lat":21.918073799999998,"lon":-159.49818556,"surveyed":"15-FEB-2023","legend":"1"}},{"type":"Feature","id":1776,"geometry":{"type":"Point","coordinates":[-159.54491719337011,21.913278361489667]},"properties":{"objectid":1776,"island":"Kauai","route":"540","mp":1.0202800000000001,"direction":"+MP","location":"Right","lat":21.913270789999999,"lon":-159.54492473000002,"surveyed":"14-FEB-2023","legend":"1; .0"}},{"type":"Feature","id":1785,"geometry":{"type":"Point","coordinates":[-159.56920252635641,21.904647017814391]},"properties":{"objectid":1785,"island":"Kauai","route":"540","mp":3.0805199999999999,"direction":"+MP","location":"Right","lat":21.904639269999997,"lon":-159.56921112999999,"surveyed":"14-FEB-2023","legend":"3; .0"}},{"type":"Feature","id":1786,"geometry":{"type":"Point","coordinates":[-159.54491666802582,21.913277951262565]},"properties":{"objectid":1786,"island":"Kauai","route":"540","mp":1.0202800000000001,"direction":"+MP","location":"Right","lat":21.913270789999999,"lon":-159.54492473000002,"surveyed":"14-FEB-2023","legend":"1; .0"}},{"type":"Feature","id":1787,"geometry":{"type":"Point","coordinates":[-159.67274436296941,22.090577249252938]},"properties":{"objectid":1787,"island":"Kauai","route":"550","mp":11.958169999999999,"direction":"+MP","location":"Right","lat":22.090566509999999,"lon":-159.67275337999999,"surveyed":"14-FEB-2023","legend":"12"}},{"type":"Feature","id":1839,"geometry":{"type":"Point","coordinates":[-159.56920227984969,21.904647352937889]},"properties":{"objectid":1839,"island":"Kauai","route":"540","mp":3.0805199999999999,"direction":"+MP","location":"Right","lat":21.904639269999997,"lon":-159.56921112999999,"surveyed":"14-FEB-2023","legend":"3; .0"}},{"type":"Feature","id":1841,"geometry":{"type":"Point","coordinates":[-159.34246145726382,22.027438267243511]},"properties":{"objectid":1841,"island":"Kauai","route":"56","mp":4.5001199999999999,"direction":"+MP","location":"Right","lat":22.027430970000001,"lon":-159.34247511000001,"surveyed":"13-FEB-2023","legend":"4 ; .5"}},{"type":"Feature","id":1842,"geometry":{"type":"Point","coordinates":[-159.34246154736891,22.027438263441404]},"properties":{"objectid":1842,"island":"Kauai","route":"56","mp":4.5001199999999999,"direction":"+MP","location":"Right","lat":22.02743096,"lon":-159.34247538,"surveyed":"13-FEB-2023","legend":"4 ; .5"}},{"type":"Feature","id":1846,"geometry":{"type":"Point","coordinates":[-159.37067237878307,21.976268221852916]},"properties":{"objectid":1846,"island":"Kauai","route":"50","mp":0,"direction":"+MP","location":"Right","lat":21.97626107,"lon":-159.37068439999999,"surveyed":"16-FEB-2023","legend":"0"}},{"type":"Feature","id":1847,"geometry":{"type":"Point","coordinates":[-159.37067225147919,21.976268808476647]},"properties":{"objectid":1847,"island":"Kauai","route":"50","mp":0,"direction":"+MP","location":"Right","lat":21.97626107,"lon":-159.37068439999999,"surveyed":"16-FEB-2023","legend":"0"}},{"type":"Feature","id":1849,"geometry":{"type":"Point","coordinates":[-159.46563731764303,21.908129624169753]},"properties":{"objectid":1849,"island":"Kauai","route":"520","mp":2.9969999999999999,"direction":"-MP","location":"Right","lat":21.908123420000003,"lon":-159.46564745000001,"surveyed":"15-FEB-2023","legend":"3"}},{"type":"Feature","id":1851,"geometry":{"type":"Point","coordinates":[-159.33478031192976,22.06775809167635]},"properties":{"objectid":1851,"island":"Kauai","route":"5600","mp":1.9951500000000002,"direction":"+MP","location":"Right","lat":22.067749769999999,"lon":-159.33479315,"surveyed":"21-FEB-2023","legend":"2;.0"}},{"type":"Feature","id":1852,"geometry":{"type":"Point","coordinates":[-159.33478044965238,22.067758541306738]},"properties":{"objectid":1852,"island":"Kauai","route":"5600","mp":1.9951500000000002,"direction":"+MP","location":"Right","lat":22.067749769999999,"lon":-159.33479315,"surveyed":"21-FEB-2023","legend":"2;.0"}},{"type":"Feature","id":1855,"geometry":{"type":"Point","coordinates":[-159.4294078856195,21.964570029045415]},"properties":{"objectid":1855,"island":"Kauai","route":"50","mp":3.9692099999999999,"direction":"+MP","location":"Right","lat":21.964561500000002,"lon":-159.42941801999999,"surveyed":"16-FEB-2023","legend":"4"}},{"type":"Feature","id":1856,"geometry":{"type":"Point","coordinates":[-159.42940806383544,21.964569386231943]},"properties":{"objectid":1856,"island":"Kauai","route":"50","mp":3.96923,"direction":"+MP","location":"Right","lat":21.96456177,"lon":-159.42941852999999,"surveyed":"16-FEB-2023","legend":"4"}},{"type":"Feature","id":1867,"geometry":{"type":"Point","coordinates":[-159.46708901593942,21.943374458127135]},"properties":{"objectid":1867,"island":"Kauai","route":"520","mp":0.50142000000000009,"direction":"+MP","location":"Right","lat":21.943367520000002,"lon":-159.46709799000001,"surveyed":"15-FEB-2023","legend":"0; .5"}},{"type":"Feature","id":1868,"geometry":{"type":"Point","coordinates":[-159.66329875842604,22.04090188859001]},"properties":{"objectid":1868,"island":"Kauai","route":"550","mp":7.4993600000000002,"direction":"+MP","location":"Right","lat":22.04089287,"lon":-159.66330723999999,"surveyed":"14-FEB-2023","legend":"7 .50"}},{"type":"Feature","id":1869,"geometry":{"type":"Point","coordinates":[-159.66329836874328,22.040901236100627]},"properties":{"objectid":1869,"island":"Kauai","route":"550","mp":7.4993600000000002,"direction":"+MP","location":"Right","lat":22.04089287,"lon":-159.66330723999999,"surveyed":"14-FEB-2023","legend":"7 .50"}},{"type":"Feature","id":1878,"geometry":{"type":"Point","coordinates":[-159.48407997231274,21.913359545679747]},"properties":{"objectid":1878,"island":"Kauai","route":"530","mp":1.9837800000000001,"direction":"-MP","location":"Right","lat":21.913352639999999,"lon":-159.48408902,"surveyed":"15-FEB-2023","legend":"(unreadable)"}},{"type":"Feature","id":1908,"geometry":{"type":"Point","coordinates":[-159.66203850301201,22.066924357770155]},"properties":{"objectid":1908,"island":"Kauai","route":"550","mp":9.9628300000000003,"direction":"+MP","location":"Right","lat":22.06691404,"lon":-159.66204752000002,"surveyed":"14-FEB-2023","legend":"10"}},{"type":"Feature","id":1942,"geometry":{"type":"Point","coordinates":[-159.47899614026687,21.908094886917667]},"properties":{"objectid":1942,"island":"Kauai","route":"530","mp":2.48264,"direction":"+MP","location":"Right","lat":21.908089030000003,"lon":-159.47900448000001,"surveyed":"15-FEB-2023","legend":"2;.5"}},{"type":"Feature","id":2017,"geometry":{"type":"Point","coordinates":[-159.48416583884395,21.913277385973494]},"properties":{"objectid":2017,"island":"Kauai","route":"530","mp":1.99098,"direction":"+MP","location":"Right","lat":21.913270569999998,"lon":-159.4841754,"surveyed":"15-FEB-2023","legend":"2"}},{"type":"Feature","id":2036,"geometry":{"type":"Point","coordinates":[-159.66417197331307,21.962940099467392]},"properties":{"objectid":2036,"island":"Kauai","route":"550","mp":1.05263,"direction":"+MP","location":"Right","lat":21.96293124,"lon":-159.66418037,"surveyed":"14-FEB-2023","legend":"1"}},{"type":"Feature","id":2054,"geometry":{"type":"Point","coordinates":[-159.34605140102903,22.006118750615698]},"properties":{"objectid":2054,"island":"Kauai","route":"56","mp":2.9835400000000001,"direction":"+MP","location":"Right","lat":22.00611052,"lon":-159.34606416,"surveyed":"13-FEB-2023","legend":"3; .0"}},{"type":"Feature","id":2147,"geometry":{"type":"Point","coordinates":[-159.32590951741537,22.17622372975784]},"properties":{"objectid":2147,"island":"Kauai","route":"56","mp":16.221360000000001,"direction":"-MP","location":"Right","lat":22.17621351,"lon":-159.32592403999999,"surveyed":"22-FEB-2023","legend":"16, .5"}},{"type":"Feature","id":2148,"geometry":{"type":"Point","coordinates":[-159.32590896465163,22.176223785972269]},"properties":{"objectid":2148,"island":"Kauai","route":"56","mp":16.221319999999999,"direction":"-MP","location":"Right","lat":22.17621321,"lon":-159.32592334,"surveyed":"22-FEB-2023","legend":"16, .5"}},{"type":"Feature","id":2149,"geometry":{"type":"Point","coordinates":[-159.32240838223092,22.166459290589675]},"properties":{"objectid":2149,"island":"Kauai","route":"56","mp":15.47749,"direction":"-MP","location":"Right","lat":22.166449319999998,"lon":-159.32242287999998,"surveyed":"22-FEB-2023","legend":"15 .5"}},{"type":"Feature","id":2150,"geometry":{"type":"Point","coordinates":[-159.32240869469459,22.166459355922001]},"properties":{"objectid":2150,"island":"Kauai","route":"56","mp":15.477519999999998,"direction":"-MP","location":"Right","lat":22.166449359999998,"lon":-159.32242339999999,"surveyed":"22-FEB-2023","legend":"15 .5"}},{"type":"Feature","id":2172,"geometry":{"type":"Point","coordinates":[-159.30229277555483,22.10864358670289]},"properties":{"objectid":2172,"island":"Kauai","route":"56","mp":10.97723,"direction":"+MP","location":"Right","lat":22.108634559999999,"lon":-159.30230908999999,"surveyed":"13-FEB-2023","legend":"11"}},{"type":"Feature","id":2173,"geometry":{"type":"Point","coordinates":[-159.32590167234363,22.172376284711291]},"properties":{"objectid":2173,"island":"Kauai","route":"56","mp":15.97414,"direction":"+MP","location":"Right","lat":22.172366109999999,"lon":-159.32591718999998,"surveyed":"13-FEB-2023","legend":"16; .0"}},{"type":"Feature","id":2175,"geometry":{"type":"Point","coordinates":[-159.40886985028874,22.203098366290906]},"properties":{"objectid":2175,"island":"Kauai","route":"56","mp":22.96068,"direction":"+MP","location":"Right","lat":22.203086589999998,"lon":-159.40888456000002,"surveyed":"13-FEB-2023","legend":"23; .0"}},{"type":"Feature","id":2176,"geometry":{"type":"Point","coordinates":[-159.44366404682606,22.211551825063228]},"properties":{"objectid":2176,"island":"Kauai","route":"56","mp":25.977689999999999,"direction":"+MP","location":"Right","lat":22.211539340000002,"lon":-159.44367697999999,"surveyed":"13-FEB-2023","legend":"26; .0"}},{"type":"Feature","id":2177,"geometry":{"type":"Point","coordinates":[-159.44351693875461,22.21142086054919]},"properties":{"objectid":2177,"island":"Kauai","route":"56","mp":25.948509999999999,"direction":"-MP","location":"Right","lat":22.211409700000001,"lon":-159.44353142,"surveyed":"22-FEB-2023","legend":"26"}},{"type":"Feature","id":2212,"geometry":{"type":"Point","coordinates":[-159.53458795186577,22.215156129132389]},"properties":{"objectid":2212,"island":"Kauai","route":"560","mp":6.0036199999999997,"direction":"+MP","location":"Right","lat":22.21514371,"lon":-159.53460064000001,"surveyed":"19-FEB-2023","legend":"6"}},{"type":"Feature","id":2213,"geometry":{"type":"Point","coordinates":[-159.53458807367622,22.215156525326943]},"properties":{"objectid":2213,"island":"Kauai","route":"560","mp":6.0035799999999995,"direction":"+MP","location":"Right","lat":22.215143819999998,"lon":-159.53459989000001,"surveyed":"19-FEB-2023","legend":"6"}},{"type":"Feature","id":2214,"geometry":{"type":"Point","coordinates":[-159.58260414863776,22.220484008844043]},"properties":{"objectid":2214,"island":"Kauai","route":"560","mp":9.9794099999999997,"direction":"+MP","location":"Right","lat":22.220471320000001,"lon":-159.58261474000003,"surveyed":"19-FEB-2023","legend":"10"}},{"type":"Feature","id":2215,"geometry":{"type":"Point","coordinates":[-159.58260469348289,22.220484840730339]},"properties":{"objectid":2215,"island":"Kauai","route":"560","mp":9.9794199999999993,"direction":"+MP","location":"Right","lat":22.22047148,"lon":-159.58261497000001,"surveyed":"19-FEB-2023","legend":"10"}},{"type":"Feature","id":2216,"geometry":{"type":"Point","coordinates":[-159.46847957704898,21.936339870597902]},"properties":{"objectid":2216,"island":"Kauai","route":"520","mp":0.99540000000000006,"direction":"-MP","location":"Right","lat":21.936333579999999,"lon":-159.46848947000001,"surveyed":"15-FEB-2023","legend":"1"}},{"type":"Feature","id":2217,"geometry":{"type":"Point","coordinates":[-159.31981568699948,22.080109786790317]},"properties":{"objectid":2217,"island":"Kauai","route":"5600","mp":0.49760000000000004,"direction":"+MP","location":"Right","lat":22.080101020000001,"lon":-159.31982916999999,"surveyed":"21-FEB-2023","legend":"0;.5"}},{"type":"Feature","id":2218,"geometry":{"type":"Point","coordinates":[-159.3198159403546,22.080110377143164]},"properties":{"objectid":2218,"island":"Kauai","route":"5600","mp":0.49760000000000004,"direction":"+MP","location":"Right","lat":22.080101020000001,"lon":-159.31982916999999,"surveyed":"21-FEB-2023","legend":"0;.5"}},{"type":"Feature","id":2219,"geometry":{"type":"Point","coordinates":[-159.32374204226338,22.074262254298919]},"properties":{"objectid":2219,"island":"Kauai","route":"5600","mp":0.98567000000000005,"direction":"+MP","location":"Right","lat":22.074253890000001,"lon":-159.32375461999999,"surveyed":"21-FEB-2023","legend":"1;.0"}},{"type":"Feature","id":2220,"geometry":{"type":"Point","coordinates":[-159.3237413499273,22.074262139125665]},"properties":{"objectid":2220,"island":"Kauai","route":"5600","mp":0.98567000000000005,"direction":"+MP","location":"Right","lat":22.074253890000001,"lon":-159.32375461999999,"surveyed":"21-FEB-2023","legend":"1;.0"}},{"type":"Feature","id":2221,"geometry":{"type":"Point","coordinates":[-159.33043289581707,22.072552839271861]},"properties":{"objectid":2221,"island":"Kauai","route":"5600","mp":1.49353,"direction":"+MP","location":"Right","lat":22.072543170000003,"lon":-159.33044749999999,"surveyed":"21-FEB-2023","legend":"1;.5"}},{"type":"Feature","id":2222,"geometry":{"type":"Point","coordinates":[-159.3304332325456,22.072552172757923]},"properties":{"objectid":2222,"island":"Kauai","route":"5600","mp":1.49353,"direction":"+MP","location":"Right","lat":22.072543170000003,"lon":-159.33044749999999,"surveyed":"21-FEB-2023","legend":"1;.5"}},{"type":"Feature","id":2223,"geometry":{"type":"Point","coordinates":[-159.46697627065825,21.943354411349265]},"properties":{"objectid":2223,"island":"Kauai","route":"520","mp":0.50015999999999994,"direction":"-MP","location":"Right","lat":21.943347680000002,"lon":-159.46698634000001,"surveyed":"15-FEB-2023","legend":"0; .5"}},{"type":"Feature","id":2224,"geometry":{"type":"Point","coordinates":[-159.33519005885498,22.061299084990246]},"properties":{"objectid":2224,"island":"Kauai","route":"5600","mp":2.5045999999999999,"direction":"+MP","location":"Right","lat":22.061291869999998,"lon":-159.33520274999998,"surveyed":"21-FEB-2023","legend":"2;.5"}},{"type":"Feature","id":2225,"geometry":{"type":"Point","coordinates":[-159.33518943245537,22.061299370856492]},"properties":{"objectid":2225,"island":"Kauai","route":"5600","mp":2.5045999999999999,"direction":"+MP","location":"Right","lat":22.061291869999998,"lon":-159.33520274999998,"surveyed":"21-FEB-2023","legend":"2;.5"}},{"type":"Feature","id":2226,"geometry":{"type":"Point","coordinates":[-159.3304933809456,22.05585063903985]},"properties":{"objectid":2226,"island":"Kauai","route":"5600","mp":3.0009200000000003,"direction":"+MP","location":"Right","lat":22.055842690000002,"lon":-159.33050559,"surveyed":"21-FEB-2023","legend":"3;.0"}},{"type":"Feature","id":2227,"geometry":{"type":"Point","coordinates":[-159.33049278588328,22.055850641144819]},"properties":{"objectid":2227,"island":"Kauai","route":"5600","mp":3.0009200000000003,"direction":"+MP","location":"Right","lat":22.055842690000002,"lon":-159.33050559,"surveyed":"21-FEB-2023","legend":"3;.0"}},{"type":"Feature","id":2233,"geometry":{"type":"Point","coordinates":[-159.46858394345961,21.936390588685793]},"properties":{"objectid":2233,"island":"Kauai","route":"520","mp":0.99605999999999995,"direction":"+MP","location":"Right","lat":21.936383530000001,"lon":-159.4685929,"surveyed":"15-FEB-2023","legend":"1"}},{"type":"Feature","id":2236,"geometry":{"type":"Point","coordinates":[-159.46880655172072,21.929397284210761]},"properties":{"objectid":2236,"island":"Kauai","route":"520","mp":1.4964199999999999,"direction":"+MP","location":"Right","lat":21.929390720000001,"lon":-159.46881556,"surveyed":"15-FEB-2023","legend":"1; .5"}},{"type":"Feature","id":2237,"geometry":{"type":"Point","coordinates":[-159.4690532815672,21.922132314634087]},"properties":{"objectid":2237,"island":"Kauai","route":"520","mp":1.9969300000000001,"direction":"+MP","location":"Right","lat":21.92212593,"lon":-159.46906208999999,"surveyed":"15-FEB-2023","legend":"2"}},{"type":"Feature","id":2238,"geometry":{"type":"Point","coordinates":[-159.46807450720632,21.914974877037523]},"properties":{"objectid":2238,"island":"Kauai","route":"520","mp":2.4970499999999998,"direction":"+MP","location":"Right","lat":21.914968699999999,"lon":-159.46808331,"surveyed":"15-FEB-2023","legend":"2; .5"}},{"type":"Feature","id":2242,"geometry":{"type":"Point","coordinates":[-159.46575796479385,21.908134107126784]},"properties":{"objectid":2242,"island":"Kauai","route":"520","mp":2.9965800000000002,"direction":"+MP","location":"Right","lat":21.908127910000001,"lon":-159.46576680000001,"surveyed":"15-FEB-2023","legend":"3"}},{"type":"Feature","id":2243,"geometry":{"type":"Point","coordinates":[-159.46796104413932,21.914994715125331]},"properties":{"objectid":2243,"island":"Kauai","route":"520","mp":2.4961800000000003,"direction":"-MP","location":"Right","lat":21.914988349999998,"lon":-159.46797097999999,"surveyed":"15-FEB-2023","legend":"2; .5"}},{"type":"Feature","id":2261,"geometry":{"type":"Point","coordinates":[-159.3782557021529,22.202424753233402]},"properties":{"objectid":2261,"island":"Kauai","route":"56","mp":20.959770000000002,"direction":"+MP","location":"Right","lat":22.202412380000002,"lon":-159.37826982999999,"surveyed":"13-FEB-2023","legend":"21"}},{"type":"Feature","id":2262,"geometry":{"type":"Point","coordinates":[-159.37825701430987,22.202424575825031]},"properties":{"objectid":2262,"island":"Kauai","route":"56","mp":20.959750000000003,"direction":"+MP","location":"Right","lat":22.20241416,"lon":-159.37826962,"surveyed":"13-FEB-2023","legend":"21"}},{"type":"Feature","id":2330,"geometry":{"type":"Point","coordinates":[-159.66132352438927,22.046222152835536]},"properties":{"objectid":2330,"island":"Kauai","route":"550","mp":7.9797799999999999,"direction":"+MP","location":"Right","lat":22.04621268,"lon":-159.66133221000001,"surveyed":"14-FEB-2023","legend":"8 00"}},{"type":"Feature","id":2331,"geometry":{"type":"Point","coordinates":[-159.49818532434148,21.917965751796434]},"properties":{"objectid":2331,"island":"Kauai","route":"530","mp":0.99055000000000004,"direction":"+MP","location":"Right","lat":21.917959270000001,"lon":-159.49819529999999,"surveyed":"15-FEB-2023","legend":"1"}},{"type":"Feature","id":2332,"geometry":{"type":"Point","coordinates":[-159.67274376922711,22.090577759408248]},"properties":{"objectid":2332,"island":"Kauai","route":"550","mp":11.95819,"direction":"+MP","location":"Right","lat":22.090566809999999,"lon":-159.67275344999999,"surveyed":"14-FEB-2023","legend":"12"}},{"type":"Feature","id":2333,"geometry":{"type":"Point","coordinates":[-159.66407903381364,21.976349157189695]},"properties":{"objectid":2333,"island":"Kauai","route":"550","mp":2.0001100000000003,"direction":"+MP","location":"Right","lat":21.976340059999998,"lon":-159.66408724999999,"surveyed":"14-FEB-2023","legend":"2"}},{"type":"Feature","id":2334,"geometry":{"type":"Point","coordinates":[-159.67242478356636,21.987597865010887]},"properties":{"objectid":2334,"island":"Kauai","route":"550","mp":3.00021,"direction":"+MP","location":"Right","lat":21.98758904,"lon":-159.67243299,"surveyed":"14-FEB-2023","legend":"3"}},{"type":"Feature","id":2335,"geometry":{"type":"Point","coordinates":[-159.67738588623558,22.000380541111973]},"properties":{"objectid":2335,"island":"Kauai","route":"550","mp":3.9917799999999999,"direction":"+MP","location":"Right","lat":22.00037107,"lon":-159.67739392999999,"surveyed":"14-FEB-2023","legend":"4"}},{"type":"Feature","id":2336,"geometry":{"type":"Point","coordinates":[-159.67257279201013,22.025460952797651]},"properties":{"objectid":2336,"island":"Kauai","route":"550","mp":5.9909499999999998,"direction":"+MP","location":"Right","lat":22.025451270000001,"lon":-159.67258170000002,"surveyed":"14-FEB-2023","legend":"6 00"}},{"type":"Feature","id":2353,"geometry":{"type":"Point","coordinates":[-159.34199974211242,22.020159140104738]},"properties":{"objectid":2353,"island":"Kauai","route":"56","mp":3.9903599999999999,"direction":"+MP","location":"Right","lat":22.020152459999998,"lon":-159.34201391000002,"surveyed":"13-FEB-2023","legend":"4; .0"}},{"type":"Feature","id":2359,"geometry":{"type":"Point","coordinates":[-159.32429644166874,22.057958505642425]},"properties":{"objectid":2359,"island":"Kauai","route":"56","mp":7.03796,"direction":"+MP","location":"Right","lat":22.057951030000002,"lon":-159.32431076999998,"surveyed":"13-FEB-2023","legend":"7"}},{"type":"Feature","id":2365,"geometry":{"type":"Point","coordinates":[-159.30764015439738,22.088386046575202]},"properties":{"objectid":2365,"island":"Kauai","route":"56","mp":9.5082300000000011,"direction":"+MP","location":"Right","lat":22.08837784,"lon":-159.30765538,"surveyed":"13-FEB-2023","legend":"9 .50"}},{"type":"Feature","id":2370,"geometry":{"type":"Point","coordinates":[-159.35096497361792,22.178662212704452]},"properties":{"objectid":2370,"island":"Kauai","route":"56","mp":17.967410000000001,"direction":"+MP","location":"Right","lat":22.178651630000001,"lon":-159.35097898000001,"surveyed":"13-FEB-2023","legend":"18"}},{"type":"Feature","id":2376,"geometry":{"type":"Point","coordinates":[-159.41868043223235,22.213822487916079]},"properties":{"objectid":2376,"island":"Kauai","route":"56","mp":23.96133,"direction":"+MP","location":"Right","lat":22.213810379999998,"lon":-159.41869499000001,"surveyed":"13-FEB-2023","legend":"24; .0"}},{"type":"Feature","id":2377,"geometry":{"type":"Point","coordinates":[-159.47375114598231,22.213147971128492]},"properties":{"objectid":2377,"island":"Kauai","route":"56","mp":28.122299999999999,"direction":"+MP","location":"Right","lat":22.21313567,"lon":-159.47376497000002,"surveyed":"13-FEB-2023","legend":"0"}},{"type":"Feature","id":2378,"geometry":{"type":"Point","coordinates":[-159.47375099668142,22.21315147318419]},"properties":{"objectid":2378,"island":"Kauai","route":"56","mp":28.122299999999999,"direction":"+MP","location":"Right","lat":22.213138350000001,"lon":-159.47376432999999,"surveyed":"13-FEB-2023","legend":"28"}},{"type":"Feature","id":2500,"geometry":{"type":"Point","coordinates":[-159.31826091142653,22.076201783123448]},"properties":{"objectid":2500,"island":"Kauai","route":"56","mp":8.3941300000000005,"direction":"-MP","location":"Right","lat":22.07619309,"lon":-159.31827482,"surveyed":"22-FEB-2023","legend":"0"}},{"type":"Feature","id":2509,"geometry":{"type":"Point","coordinates":[-159.34969529419718,22.049081835699958]},"properties":{"objectid":2509,"island":"Kauai","route":"580","mp":0.99424000000000012,"direction":"+MP","location":"Right","lat":22.04907317,"lon":-159.34970865000003,"surveyed":"22-FEB-2023","legend":"1; .0"}},{"type":"Feature","id":2511,"geometry":{"type":"Point","coordinates":[-159.37579932910123,22.055448719396342]},"properties":{"objectid":2511,"island":"Kauai","route":"580","mp":2.9837199999999999,"direction":"+MP","location":"Right","lat":22.055439919999998,"lon":-159.37581254,"surveyed":"22-FEB-2023","legend":"3"}},{"type":"Feature","id":2512,"geometry":{"type":"Point","coordinates":[-159.38745659257103,22.057075758822396]},"properties":{"objectid":2512,"island":"Kauai","route":"580","mp":3.9753799999999999,"direction":"+MP","location":"Right","lat":22.057067029999999,"lon":-159.38746943000001,"surveyed":"22-FEB-2023","legend":"4"}},{"type":"Feature","id":2526,"geometry":{"type":"Point","coordinates":[-159.39760887951925,22.064141307077087]},"properties":{"objectid":2526,"island":"Kauai","route":"580","mp":4.9953200000000004,"direction":"+MP","location":"Right","lat":22.064132430000001,"lon":-159.39762028000001,"surveyed":"22-FEB-2023","legend":"5"}},{"type":"Feature","id":2527,"geometry":{"type":"Point","coordinates":[-159.39760840420581,22.064141511504694]},"properties":{"objectid":2527,"island":"Kauai","route":"580","mp":4.9952900000000007,"direction":"+MP","location":"Right","lat":22.06413289,"lon":-159.39762058000002,"surveyed":"22-FEB-2023","legend":"5"}}]}